{"type": "FeatureCollection", "features": [{"type": "Feature", "properties": {"NAME": "Chennai Metropolitan Area"}, "geometry": {"type": "MultiPolygon", "coordinates": [[[[80.3049883910702, 13.109301790160089], [80.30495078521182, 13.108747162663633], [80.3048173720021, 13.107867491545846], [80.30477968465874, 13.107178902831265], [80.30472226221059, 13.106892197750938], [80.30456742107248, 13.106778015036468], [80.30445155775442, 13.106720990400959], [80.30414211311916, 13.106722126444595], [80.30392846740313, 13.10689507939611], [80.30385101302812, 13.107029230232683], [80.30377313151939, 13.107220816913411], [80.30381078570139, 13.10760326068339], [80.30386833376889, 13.107966352210212], [80.30386762168888, 13.10846384516833], [80.30388590917278, 13.109152707780936], [80.30342345949225, 13.108408585777454], [80.3032107513331, 13.108313828573444], [80.30309507126259, 13.108524877219907], [80.30340301147316, 13.10904005851097], [80.3035561670215, 13.109823855523132], [80.302336137635, 13.111742338491524], [80.30158089980256, 13.112874316316777], [80.30211927497828, 13.11390485527744], [80.30142265253056, 13.114653646983243], [80.29982631591957, 13.116690756706987], [80.30068615132029, 13.115861720559508], [80.30252419029677, 13.113979894130637], [80.30227436300407, 13.113425980157785], [80.3025446851691, 13.113405763741184], [80.30283478989742, 13.113289904160752], [80.30393884997738, 13.112061245519953], [80.30496633009261, 13.110488182580866], [80.3049883910702, 13.109301790160089]]], [[[80.26881374944628, 13.291673660101765], [80.26884105461704, 13.288280601403926], [80.26982473629448, 13.284556343913096], [80.27262635337843, 13.285519989378713], [80.27659472212969, 13.282683621801993], [80.28061647225695, 13.282218857460293], [80.28638409571914, 13.281808833061689], [80.29243242076473, 13.281090398359424], [80.29751737152884, 13.28149233440331], [80.30137222293706, 13.281666671789822], [80.30309242909095, 13.28032802291574], [80.30240363412054, 13.276996252270408], [80.30749067415405, 13.275530530200456], [80.31219359203743, 13.275646843341974], [80.31220777429348, 13.273884494819072], [80.31770485034741, 13.272521078993805], [80.32308927565356, 13.271970233876402], [80.32589026000022, 13.268027593041609], [80.3332644560482, 13.265605583572892], [80.33642194026714, 13.265166672373255], [80.33904819024303, 13.26480160624817], [80.3453145668077, 13.263417885829028], [80.34461449813176, 13.260717620936305], [80.34351439021253, 13.2597175228276], [80.34221426267146, 13.259517503205927], [80.3398140272111, 13.259217473773333], [80.33881392910257, 13.258217375665026], [80.33631368383135, 13.253616924365986], [80.33421347780359, 13.247916365147546], [80.33271333064084, 13.241915776496683], [80.33181324234323, 13.238415433116927], [80.33030087909384, 13.23691211830419], [80.33030087909384, 13.236510038970835], [80.33058807861772, 13.235705880303897], [80.33053063871301, 13.234212442779835], [80.32943928052231, 13.231512767255651], [80.32817560261725, 13.226745255159415], [80.32616520595036, 13.220771505063055], [80.32363785014036, 13.212040639537747], [80.322436111532, 13.20704478304907], [80.31886714693849, 13.19220791686223], [80.3151909930329, 13.179239262807073], [80.31416983917029, 13.175256762742947], [80.31325080069388, 13.171784839609757], [80.3118211852863, 13.166576954910454], [80.3110042621962, 13.1634113779362], [80.31018733910616, 13.159837339417209], [80.30875772369842, 13.155548493194146], [80.30691964674571, 13.150034262336078], [80.30436676208916, 13.143907339160535], [80.30282683609784, 13.144684302124006], [80.30275511210186, 13.144530155082919], [80.30259837839674, 13.144179927984226], [80.30244681285973, 13.143826920288973], [80.30230041868879, 13.143471133985429], [80.3021585665781, 13.14311241733651], [80.30210158926047, 13.142921014798048], [80.30179592726506, 13.142385293221082], [80.30162931314857, 13.141993929145372], [80.3014361908505, 13.141600709553927], [80.3012243505591, 13.141205171435217], [80.30099925047045, 13.14080613234421], [80.30076980259395, 13.140404649409675], [80.30054360407661, 13.140000524213576], [80.30032729906378, 13.139593874954073], [80.30012911437802, 13.139184181091764], [80.29997586135124, 13.138877162130939], [80.29976538272047, 13.138435823753014], [80.29940211649551, 13.137572034454251], [80.29936442325732, 13.137360543752663], [80.29919242170956, 13.136976906843586], [80.29911785687489, 13.136784531397723], [80.29846957806649, 13.135096441711028], [80.29829418829974, 13.134618229050261], [80.2981118217374, 13.134148736052907], [80.29792841112356, 13.133685094419889], [80.29774866566152, 13.133222197437476], [80.29757761819235, 13.132755563469914], [80.29741933714683, 13.132280546893071], [80.29732204690606, 13.131928377826341], [80.29727944390993, 13.131792473255928], [80.29708480309193, 13.130956361529911], [80.29698768876045, 13.130665330505053], [80.29695135429364, 13.130450270402719], [80.29690011568954, 13.130251706810839], [80.29683941461764, 13.130063461104669], [80.29670969893374, 13.129694289423583], [80.29665131964799, 13.12950136169303], [80.29660414613471, 13.129294778480642], [80.2965735504942, 13.129068517270184], [80.29649457061078, 13.128795731470348], [80.29631833742536, 13.128328173857085], [80.29623855235423, 13.127938249997328], [80.29612065260915, 13.127509512317658], [80.29608642368026, 13.127153424535265], [80.29604561313954, 13.126791192207065], [80.29599981132816, 13.126424869349307], [80.29595029288953, 13.126056512618959], [80.2958983293176, 13.125688019996062], [80.29574013046181, 13.124602300265224], [80.29576050661257, 13.12415838611696], [80.29584161103992, 13.123815531580021], [80.29614161982374, 13.123791256341462], [80.29593121437068, 13.123370948625393], [80.29600598507466, 13.12316871354551], [80.29609452457288, 13.122973663143], [80.29619194988834, 13.122780943667578], [80.29629336751407, 13.122585698980515], [80.29639449095436, 13.122382898009846], [80.29649008290261, 13.122167983241184], [80.29662851098476, 13.122059053628846], [80.29677823224324, 13.121952750371804], [80.29697076719481, 13.121815736203985], [80.29722032936695, 13.121696966094134], [80.29754703690907, 13.121653620276504], [80.29762193151691, 13.121881981611352], [80.29775519407235, 13.122090636464748], [80.29798450410539, 13.12224080493013], [80.29842691974761, 13.122236255607618], [80.29856213804106, 13.122121179616556], [80.29863966854276, 13.121968050571127], [80.29877552358533, 13.121738198971855], [80.29889236481608, 13.121489424035019], [80.29896960930796, 13.121450896571332], [80.29904676968965, 13.121431503115389], [80.29910394584681, 13.121526815635605], [80.29914131940563, 13.12169872926438], [80.29917755212097, 13.122157492809038], [80.29929270229087, 13.122329060729953], [80.29936926144956, 13.122386259133464], [80.29948541566893, 13.12230941283741], [80.29948692661816, 13.122003545810912], [80.29941097843727, 13.12175531213677], [80.29933628316707, 13.121315913740887], [80.29918333048755, 13.12099146947071], [80.29901271525557, 13.120514276032168], [80.29887979452764, 13.120094270520553], [80.29880506463422, 13.119750748549848], [80.29865329207547, 13.119235495495388], [80.29850248044932, 13.118662981735781], [80.29844570620679, 13.118510457962259], [80.29837194943116, 13.117746727422286], [80.29824040447204, 13.117136282747765], [80.29943094498748, 13.117071965475361], [80.29946497645705, 13.117039153011149], [80.298184148458, 13.11686928143854], [80.29812805138255, 13.116564061123029], [80.29801472267576, 13.116163706832651], [80.2980162821114, 13.115762657038033], [80.29807496040843, 13.115475706837742], [80.29819012888817, 13.115321833184908], [80.29826790148417, 13.115092080880459], [80.29842108446871, 13.114957205875044], [80.2985944321727, 13.11478395934239], [80.29882517065755, 13.114648589638648], [80.29907474649099, 13.114532128948667], [80.29932468574924, 13.114454153043482], [80.29947850659335, 13.114357541467314], [80.2996516905057, 13.114184456050907], [80.29974871250965, 13.114069234152225], [80.29995036852864, 13.113706674862271], [80.30007656410584, 13.113353878755788], [80.30014073137039, 13.11300656492017], [80.30015106101348, 13.11280654689898], [80.30015664795224, 13.112660305488191], [80.30013747927723, 13.112310834832044], [80.30009670719124, 13.111953727712716], [80.30004843366686, 13.11158501554769], [80.30000581362424, 13.111200260205294], [80.29991068670193, 13.110780412311783], [80.29979635650614, 13.110417988448205], [80.29973891146466, 13.110074324336324], [80.29958607065765, 13.109750540564391], [80.29939443368983, 13.109388766380107], [80.29931492198438, 13.108984107584945], [80.29917760045049, 13.108270659068467], [80.29909849280523, 13.10771186247888], [80.29898053590057, 13.107268358618398], [80.29888226284527, 13.106767286300169], [80.29886040391955, 13.106151628381724], [80.29879991718428, 13.105420266634951], [80.29870092999198, 13.104823395291135], [80.29862138642295, 13.104284368715582], [80.29861508326246, 13.102305485829902], [80.29867152182612, 13.10172978491562], [80.29872909371687, 13.101307930428788], [80.29880591475404, 13.100962998851458], [80.29890203869593, 13.100714326907791], [80.29903754365853, 13.100504241396152], [80.29915364826036, 13.100370821342494], [80.29936736197112, 13.100276376700322], [80.30045598037896, 13.099861157362284], [80.30178009978954, 13.099503676442225], [80.30203285662242, 13.099389715042093], [80.30205204854622, 13.099274702378523], [80.30205186409768, 13.09912119188266], [80.30199336733642, 13.09896743269826], [80.3017011190085, 13.09894690578136], [80.30138038679013, 13.098999850588314], [80.30107074781006, 13.099090679281858], [80.30076838330598, 13.099205942126446], [80.30046883600096, 13.099332180647252], [80.30016892093096, 13.0994560965392], [80.29986496059206, 13.099564389158843], [80.29955353774278, 13.099643762166238], [80.29922946959323, 13.099680309259384], [80.29874326561003, 13.099753154276868], [80.29843117184282, 13.099443200754308], [80.29677497824616, 13.099785743479515], [80.29645688856732, 13.09882072131228], [80.29611408997818, 13.097519574233502], [80.29559215502422, 13.095519951470294], [80.29534656448146, 13.094747248723706], [80.29476132917222, 13.092828032667569], [80.29474191284305, 13.09265665031785], [80.29489722764959, 13.09252122620802], [80.29577713237853, 13.092195380657131], [80.29630434897712, 13.092120049085054], [80.29682177765517, 13.092012546901003], [80.29733304895069, 13.091881832895865], [80.29783234511757, 13.09173393569506], [80.29833291004218, 13.091580498988378], [80.29883810145589, 13.09143008625648], [80.29935213990268, 13.091291377248126], [80.299878900784, 13.091173181727925], [80.30038597275848, 13.091022698348183], [80.30056156394915, 13.091023523706099], [80.30089311211634, 13.091139898883682], [80.30122518653747, 13.09123700772642], [80.3016736908304, 13.091411181266551], [80.30200471184367, 13.091584826831138], [80.30214120514495, 13.091700227572744], [80.30225983593687, 13.093023173020356], [80.30249318830539, 13.093004767988532], [80.30247278438435, 13.09189297976826], [80.3027070744526, 13.092200354103682], [80.30303810664077, 13.092603945147118], [80.30329609203966, 13.092912626531017], [80.30350457067169, 13.093187002143736], [80.30367022785464, 13.093442855425621], [80.30380005901429, 13.093695345441347], [80.3039001054031, 13.093960408682563], [80.30397767245313, 13.094253205232064], [80.30403911362436, 13.094589362708348], [80.30409173168022, 13.094984358356612], [80.3040929579713, 13.096384531809349], [80.3040546666698, 13.097132561070794], [80.30400484046248, 13.097376148847616], [80.3039752598907, 13.097587478214564], [80.30395199339887, 13.097774160236611], [80.30392142752174, 13.097944118485486], [80.30386994909168, 13.098104807391223], [80.30378426200565, 13.098263836458841], [80.30364948602573, 13.098429118236766], [80.30345295590132, 13.098608250535278], [80.30321929332189, 13.098722582577466], [80.3030249448127, 13.098875428833423], [80.30304433064413, 13.098933121733694], [80.30314225876697, 13.098971876282576], [80.30335594219775, 13.098838282490192], [80.30356963837727, 13.098723709121998], [80.30380320854687, 13.098532643058036], [80.30393927652989, 13.098398580606954], [80.30397827068481, 13.098437106939116], [80.30401701955435, 13.09855230904725], [80.3040611722156, 13.099025478744068], [80.3040774768017, 13.099187015480425], [80.30409819478263, 13.099327327635535], [80.30412968007079, 13.099468141759303], [80.3041778065139, 13.099630471279056], [80.30424805600529, 13.09983520703986], [80.30434750094167, 13.100104537248114], [80.30448211811131, 13.100448100475944], [80.30459827317452, 13.100715215223715], [80.30467586158346, 13.100866431815291], [80.30474177639059, 13.101027046659055], [80.30479318422431, 13.101194269538496], [80.30482630626648, 13.101365313825681], [80.3048379940326, 13.101537545271128], [80.30482509994874, 13.101708173961867], [80.30478384663832, 13.10187472436769], [80.30471171972977, 13.10203424944882], [80.30475053653765, 13.102187068029366], [80.30486638688438, 13.102262989629594], [80.30504116736142, 13.102166690205877], [80.30519585287118, 13.10203219250667], [80.30529320560328, 13.10187878990672], [80.30537104736544, 13.101706323004237], [80.30539075783798, 13.101419229697797], [80.30531418548173, 13.101017994670713], [80.30527096457115, 13.100846043483557], [80.30525624235747, 13.10078867694591], [80.30515961919696, 13.10050226524038], [80.30510208230083, 13.100215694485485], [80.30498641494142, 13.099814551112956], [80.30487076197863, 13.099604846936415], [80.30475526342337, 13.099299456102585], [80.30463985538415, 13.098936667379746], [80.30458150023628, 13.09868826688637], [80.30458116225202, 13.09830440215842], [80.30469797281165, 13.097882587075674], [80.3047749153904, 13.097115154248854], [80.304773900373, 13.095887404266136], [80.30479870996027, 13.09562442167288], [80.30479406511893, 13.095364350087664], [80.30476598189375, 13.095106579404103], [80.3047207935669, 13.094850655332152], [80.30466515080258, 13.094596123863539], [80.3046053880089, 13.094342218152121], [80.30454815764801, 13.09408864046685], [80.3044994790738, 13.09383462367191], [80.30434394891012, 13.093489093868925], [80.30414914508066, 13.093181876096253], [80.30397333635665, 13.092874709979696], [80.30362268582883, 13.092337009001199], [80.30327143617939, 13.0919144481241], [80.30315422611943, 13.091645841106924], [80.30295941743202, 13.091472803731392], [80.30274517774558, 13.091222966894463], [80.30264758891684, 13.09095443745332], [80.30258857294837, 13.090915903016707], [80.30260844636524, 13.090801023036306], [80.30270576189474, 13.090762933559688], [80.30303630277581, 13.090572148726949], [80.30346480139639, 13.090419880400475], [80.30367928485668, 13.090267046985389], [80.30381516360444, 13.090133206236771], [80.30383464848887, 13.089922385474495], [80.30379552211917, 13.089749816152278], [80.30367877511458, 13.089634638367102], [80.3035614188118, 13.089557820896687], [80.30336704746821, 13.089519036403033], [80.30313337703626, 13.08951850316771], [80.30276279423765, 13.089632514331583], [80.30217841400423, 13.089784168330993], [80.30178853827641, 13.08978295595233], [80.30165196308491, 13.089629255278624], [80.30133979516035, 13.089053599687361], [80.30110503890978, 13.088516450088264], [80.30073426607157, 13.087902345682892], [80.30024576173486, 13.087211175781476], [80.2998346437895, 13.086596991582496], [80.29948298641216, 13.086174495259456], [80.29907181516916, 13.085541199884688], [80.29871923369507, 13.084831649965622], [80.29826882607597, 13.084255694942385], [80.29785087963427, 13.083658890212519], [80.2974108490015, 13.082755503835585], [80.29717114250315, 13.082485322908724], [80.29671159059711, 13.081543611545612], [80.2962518756396, 13.080678284523117], [80.29585211596981, 13.08000473154192], [80.29543837988655, 13.0793769220669], [80.29494963899987, 13.078658607141165], [80.29471481128292, 13.07828016609983], [80.29450007206486, 13.077806200639884], [80.29430441145291, 13.077408336517408], [80.29403107850851, 13.076954193580832], [80.29377650908737, 13.076537829736822], [80.29338532236807, 13.076046996805871], [80.29303370501418, 13.075403139762443], [80.29223160075134, 13.074173920292992], [80.29193868992473, 13.073777274679003], [80.29131288184061, 13.072736378888806], [80.29101938040094, 13.072244469673251], [80.29041327290764, 13.07120332451774], [80.29009989211596, 13.070749676295122], [80.28972797842215, 13.070144237009572], [80.2894733917932, 13.069823288864143], [80.28917970607267, 13.069560080000201], [80.28922036872939, 13.068758805301002], [80.28937751391709, 13.068508900692905], [80.28929954325355, 13.068166664771297], [80.28918300692152, 13.067596207780355], [80.2888312994491, 13.066818916425518], [80.28876532504415, 13.066573660502911], [80.28868992707737, 13.066326430543768], [80.28861038517289, 13.066095228200084], [80.28844427570255, 13.065623142181266], [80.28836457915668, 13.065385660967706], [80.2882909548452, 13.065145311178242], [80.28822691572702, 13.064900807663719], [80.28807073489503, 13.064426116200707], [80.28779752939465, 13.063724030781032], [80.2876809198579, 13.06326793032639], [80.2874658404071, 13.062736878561509], [80.28730999595547, 13.062281269114635], [80.28707528303522, 13.061845574142069], [80.28676258760407, 13.06144917584868], [80.28658616960479, 13.061222522864114], [80.28641010140547, 13.060976936226723], [80.28631281180066, 13.06063494721468], [80.2861765857254, 13.060140927019802], [80.2861070604556, 13.059812866417644], [80.28607101935984, 13.059505178863617], [80.28605409920851, 13.059212147416702], [80.28604258108567, 13.05892773697127], [80.28602243187112, 13.058646382033714], [80.28597962400312, 13.058362362078583], [80.28590013311793, 13.058069646324213], [80.28576993183106, 13.057762824584074], [80.28561408853136, 13.057211954215234], [80.28545869157011, 13.056756343919574], [80.28530258398229, 13.056338755827824], [80.2851851935709, 13.056168621467748], [80.28501003333969, 13.055713259006382], [80.28483398493933, 13.055372256735893], [80.2847367364721, 13.05504935431128], [80.28463899789557, 13.054802794022294], [80.28450280885505, 13.054346945895759], [80.28438610695042, 13.05402428708993], [80.28422987781448, 13.053683038354166], [80.28405454727789, 13.0531895123558], [80.28400916178305, 13.052948194722376], [80.28394692190847, 13.052681797650848], [80.283800202409, 13.052109872618018], [80.28373067968027, 13.051822155583295], [80.28367389632251, 13.051545295263736], [80.2836374865451, 13.05128819503534], [80.28362812570816, 13.051059615036138], [80.28356968984934, 13.050945842344788], [80.28353132847502, 13.050565108572073], [80.28352362587253, 13.050304856025093], [80.28349462216238, 13.050012132360791], [80.28344876177579, 13.049697742882756], [80.28339017030669, 13.049372031390305], [80.2833658913408, 13.049268382966602], [80.28332233403887, 13.049045659967305], [80.28325001413697, 13.048729119535892], [80.2831763763341, 13.048433076134359], [80.28310617974438, 13.048168175802857], [80.28298922186957, 13.047712090411551], [80.2829505088684, 13.047483722362813], [80.28283419576701, 13.047027629153717], [80.28269842178065, 13.046285829565932], [80.28264978365337, 13.046070094354548], [80.28260191283368, 13.045812576281548], [80.28247530661326, 13.045106192222761], [80.28243119120395, 13.044871530671742], [80.28238357115151, 13.044637068301142], [80.2823308537142, 13.04440298029175], [80.28229194076596, 13.04411736239723], [80.28221463053734, 13.043603682715343], [80.28217595522051, 13.043356230004235], [80.28212587824169, 13.043147907491743], [80.2820789460115, 13.042976231845785], [80.28200155720964, 13.04250056623897], [80.28192441007366, 13.042062910746836], [80.28184692438595, 13.041797017217789], [80.28176919795351, 13.04149295842899], [80.28173031683832, 13.041188410896723], [80.28159497884809, 13.040389353423905], [80.28153713999438, 13.040008707509628], [80.28145967415776, 13.039571211182647], [80.28130383092719, 13.039344318412816], [80.28127317814676, 13.038727337229034], [80.28121576961803, 13.03811379566389], [80.2811367085979, 13.037503164332975], [80.28104077578314, 13.036895072923585], [80.28093306803675, 13.036288526392696], [80.28081867883554, 13.035682995116929], [80.28072660305156, 13.035213995175127], [80.28070238176491, 13.035077798274415], [80.28058926607423, 13.03447256130579], [80.2805312477605, 13.034187183747235], [80.28048654310027, 13.033740584578027], [80.28045772244309, 13.033486800594346], [80.28036711113248, 13.03273046583115], [80.28034051119937, 13.032476343272037], [80.28031772855604, 13.032219689875376], [80.28030067140998, 13.031959550546446], [80.28014533732284, 13.031313264704409], [80.28006782697997, 13.030894697702706], [80.27989904617806, 13.029717631062113], [80.27983259342363, 13.028930888391983], [80.27979613438714, 13.028191057547758], [80.27976287574313, 13.027342946845181], [80.27972528320743, 13.02654900945754], [80.27966289158138, 13.025760040456476], [80.27955855671672, 13.024979671067626], [80.27939482207626, 13.024211226334728], [80.27937579581356, 13.023963522995643], [80.27933718650922, 13.023640039903057], [80.27927873440683, 13.023431005861084], [80.2792592550872, 13.023203035182291], [80.27908960793218, 13.022568031314677], [80.2789231020065, 13.02193301291237], [80.27876480001333, 13.021297616368258], [80.27861943943088, 13.020660246564034], [80.2784914451114, 13.020019618646018], [80.27838619427581, 13.019374745055245], [80.2783084332105, 13.018724332874399], [80.27826322600788, 13.0180667740633], [80.27820313329522, 13.017668680918177], [80.27814249875672, 13.017289446552468], [80.278063202326, 13.016910717761391], [80.27803053010302, 13.016691297657076], [80.27798515561523, 13.01646181208963], [80.2779289933157, 13.016225950966998], [80.27786364584779, 13.015988334634187], [80.27779134160363, 13.015752031021975], [80.27770969228237, 13.015513264752599], [80.27763195348882, 13.015300608236032], [80.27754901731197, 13.015092863276834], [80.27739257488372, 13.014866753664592], [80.27733313707523, 13.014677615048868], [80.27721565349452, 13.0143939090961], [80.27703799708758, 13.013902229715143], [80.27691932668768, 13.013504494906158], [80.27684065989462, 13.013334433546504], [80.27670375430125, 13.013165016793153], [80.27658674056977, 13.013052564266559], [80.27641126299949, 13.01295961137248], [80.27619735586109, 13.012904786770036], [80.2759837873416, 13.012983154371], [80.27596323902867, 13.012793623510788], [80.27592264561599, 13.012452257876191], [80.27598101402299, 13.01241359994691], [80.27628597416384, 13.012111344035418], [80.27632945322972, 13.01206789606573], [80.27646485353824, 13.01191430753488], [80.27652229926628, 13.011742729624075], [80.27657966332163, 13.011552291139537], [80.27661696237652, 13.01126686589572], [80.27663536146605, 13.011000813286614], [80.27663369783363, 13.010640082241252], [80.27657438495703, 13.010412934618387], [80.27643716823229, 13.010186376329614], [80.2763582162471, 13.009959459912068], [80.27631879323025, 13.009788967939357], [80.27625990990589, 13.009656724476429], [80.2761911481773, 13.009442987237321], [80.27612276543374, 13.009243157984088], [80.2760547431883, 13.009053218248312], [80.27598579463637, 13.008868855232777], [80.27591526773597, 13.008686057960006], [80.2756883245487, 13.008106017160458], [80.27555057255171, 13.00784179238434], [80.27547217353481, 13.007671772518961], [80.2754126903859, 13.007482365337296], [80.27515557013658, 13.006826060270612], [80.27492753399338, 13.006160773561703], [80.27472131069749, 13.005488440410602], [80.27452868022914, 13.004811937078841], [80.27434141664031, 13.004133524449287], [80.27415160630574, 13.003455153347943], [80.27395133535146, 13.002779395680875], [80.27373268690309, 13.002108826124584], [80.2736533950216, 13.001825105155376], [80.27363283978053, 13.00155950464881], [80.2735929752248, 13.001369885203303], [80.27349474337512, 13.001105263374143], [80.27341553237682, 13.000840403707855], [80.2733165645912, 13.00062433203533], [80.2732046267493, 13.000415847693148], [80.2730850944223, 13.000211791655659], [80.27296302801892, 13.000009317578872], [80.27284317269857, 12.999805891877543], [80.27273122399299, 12.999598659269054], [80.27263192521116, 12.999384467023958], [80.2725503416691, 12.999161085120022], [80.27247127739383, 12.998934272373674], [80.27243153734042, 12.998706644318247], [80.27235197855157, 12.9984418170298], [80.27231246914494, 12.998195328770862], [80.27230969901149, 12.997587589032491], [80.27234696419464, 12.997340399153416], [80.27232707155383, 12.997150529959299], [80.27226801533737, 12.996999510139347], [80.27211075644044, 12.996811448842834], [80.27199297712423, 12.99658515599117], [80.27183591046389, 12.996302193908434], [80.27177659421903, 12.996094281414628], [80.27177553860832, 12.995847110363002], [80.27179266698772, 12.995672622663903], [80.27185160134945, 12.995503661519251], [80.27194876494059, 12.995349935693923], [80.271948422386, 12.995254799859254], [80.27188918693975, 12.995103387711197], [80.27184920709794, 12.994817976060801], [80.27165286365988, 12.99432492882488], [80.27155429831964, 12.99390625752369], [80.27143679828612, 12.993621246303178], [80.27137773827059, 12.99333563061407], [80.27132163128164, 12.99307474563517], [80.27125855483428, 12.992802339258105], [80.27118947050064, 12.992522127444886], [80.27111597304577, 12.992238135001116], [80.27103965468632, 12.991954081020026], [80.27096210640349, 12.991674001175397], [80.27080808980918, 12.99114226171281], [80.27076877269661, 12.990912906407573], [80.27069047906281, 12.990722078479337], [80.27065159288907, 12.990569389970233], [80.27057330212693, 12.990359461196306], [80.2704563239119, 12.990169351989891], [80.27035868305882, 12.989940241852992], [80.27028019447181, 12.989826368896729], [80.27022167356813, 12.989673501723075], [80.27017547194743, 12.989431755515511], [80.27009456653923, 12.988990163331323], [80.27005128276141, 12.988781070133655], [80.26999975896587, 12.988573615974929], [80.26993586661808, 12.988362853856415], [80.26985516112285, 12.988144462810169], [80.26975288123447, 12.98791349763269], [80.26971345185399, 12.987683259229755], [80.26965500198395, 12.987492009190305], [80.26956226779333, 12.987224861682819], [80.26948477886248, 12.986942778534342], [80.26941777689035, 12.986651135332124], [80.26929841679129, 12.986059716230159], [80.26923717183462, 12.985770381436168], [80.26916895774872, 12.98549236425697], [80.26908964672253, 12.9852307284458], [80.26899226478514, 12.984924204225933], [80.26895295503573, 12.98469394823178], [80.26885560155546, 12.984367942139784], [80.26877792697047, 12.984080486135895], [80.26868756108166, 12.983822280279185], [80.26860291652662, 12.983562413351933], [80.26852399307097, 12.983300886367488], [80.26845079060075, 12.983037387069544], [80.26838299131578, 12.9827725467714], [80.26832091241965, 12.982506049385279], [80.26826423605416, 12.982238526339643], [80.26821327925609, 12.981969974911976], [80.26811611529513, 12.981489794927484], [80.26807247280408, 12.981226745761887], [80.2680170747119, 12.98100017511365], [80.26795309869561, 12.98079908027205], [80.2678840408526, 12.980612139180096], [80.26781371513118, 12.98042833773917], [80.26774561920814, 12.98023603710385], [80.26768325120213, 12.980023910348052], [80.2676297919603, 12.979781573170897], [80.26761049310943, 12.97969997238323], [80.2675519651188, 12.979455168582035], [80.26747444985381, 12.979147863368041], [80.26743560790618, 12.978897787843835], [80.26741631451068, 12.978816171924848], [80.26735748558355, 12.97857101346915], [80.26726033354231, 12.978244748680481], [80.26722143001831, 12.978090905750435], [80.26716869418505, 12.977781353883643], [80.26710551241075, 12.97744995076198], [80.2669665097647, 12.976750535477322], [80.2669005116486, 12.976397779965623], [80.26684300838832, 12.976053231534252], [80.26679991534024, 12.975723548773999], [80.26677545315897, 12.975417338188947], [80.26665932009547, 12.974956481902325], [80.26559369061215, 12.970418874393204], [80.26541523104004, 12.967860953859486], [80.26535922085566, 12.967300852014603], [80.26499882537189, 12.963696897177101], [80.26446344665538, 12.962031274504056], [80.2634521757468, 12.959294894398454], [80.26324900134273, 12.957737223965637], [80.26309525660275, 12.956558514292851], [80.26267885093444, 12.952810863278444], [80.26196501264604, 12.94995551012488], [80.26137014740578, 12.947457076115143], [80.26022480437291, 12.94020323690728], [80.26012093040089, 12.93954536841835], [80.25922863254021, 12.931693147245483], [80.25839582120392, 12.924078872168934], [80.25815787510766, 12.92175889773165], [80.25750352334325, 12.919200977197931], [80.25678968505485, 12.91468000137138], [80.25583790067037, 12.90670880715038], [80.25574640238409, 12.905754610735698], [80.25500508933385, 12.898023774641047], [80.25405330494942, 12.890052580420274], [80.25375587232901, 12.88773260598282], [80.25274129661346, 12.880238405556725], [80.2527394092441, 12.880223935724302], [80.25147225076745, 12.870509054069771], [80.25029573951423, 12.859233052958075], [80.25021642414896, 12.858281268573649], [80.2497405319566, 12.857964007112287], [80.24220557224533, 12.859550314419835], [80.23784322714954, 12.859946891246466], [80.23395677424566, 12.852887823727713], [80.221742207977, 12.852729192996776], [80.22166289261173, 12.854156869573899], [80.22102836968844, 12.85455344640053], [80.21952137774616, 12.855187969323651], [80.2187282240925, 12.856457015169838], [80.21500040191961, 12.86089867563112], [80.20984490316971, 12.87509612603435], [80.20926904990495, 12.876059469850816], [80.20894667894515, 12.875854746295374], [80.20590683384131, 12.873924274957574], [80.20361909191348, 12.871737297627305], [80.20208395769498, 12.864872041976923], [80.2005342097325, 12.859822753396429], [80.20089090198354, 12.855056326783767], [80.19764391203802, 12.85347697277939], [80.19384377662135, 12.851488302402743], [80.19293837779804, 12.855293815856612], [80.19020549271733, 12.858975132967316], [80.18835355892736, 12.861888892850288], [80.18551942682166, 12.86335766829609], [80.18132725102384, 12.86554302323026], [80.18036769907644, 12.866268815999433], [80.17655189860972, 12.861241839593447], [80.17439938014456, 12.857045344704602], [80.17345674800066, 12.8605731206153], [80.17354910689295, 12.863890140130366], [80.17142535448488, 12.86600847460511], [80.16860328853613, 12.865977857155372], [80.16706135750832, 12.869846626545552], [80.16452738920856, 12.873493042793086], [80.15813277115217, 12.872861540207964], [80.15301977912986, 12.870959219327233], [80.15038985304477, 12.866750917134596], [80.14568622045186, 12.868331453322924], [80.13982920396938, 12.870040819071278], [80.13666494869591, 12.867989518897446], [80.1342667399349, 12.864655291318286], [80.13192102513261, 12.859782850211332], [80.1309499369828, 12.856957268461429], [80.12837037201672, 12.856380299739385], [80.12643507311748, 12.85984434666284], [80.12163662228522, 12.863237581761211], [80.11383021699254, 12.865096552941964], [80.10862083771315, 12.865362707579493], [80.10186721005743, 12.864800682387568], [80.09741847111167, 12.864375302981045], [80.0932399530667, 12.864863486427964], [80.09277947653902, 12.867732661273749], [80.0898884176973, 12.871370888180536], [80.08743868742567, 12.869534435415915], [80.08480685969357, 12.865562440112228], [80.08310665442207, 12.864415692754335], [80.07968847890271, 12.864410152747325], [80.07379228937214, 12.865922016239665], [80.06774937308904, 12.866048736511459], [80.06550902287046, 12.862796769572014], [80.06475028935125, 12.863251354588726], [80.0642121465338, 12.865882254661642], [80.06334749073051, 12.869609777047856], [80.06085362984612, 12.873257185237037], [80.0589418406127, 12.875327453925593], [80.05587446453478, 12.87940833733029], [80.05059663265212, 12.878291284632837], [80.0491119435788, 12.8799514321272], [80.04966224174706, 12.88071456669428], [80.05209515786572, 12.884720820722862], [80.05229987911656, 12.888869142452222], [80.05387756268698, 12.89044703146402], [80.05636833990843, 12.892087323717533], [80.05934319601727, 12.892910422749082], [80.060167220572, 12.894312316982166], [80.06144831148396, 12.898092908239278], [80.06008902432768, 12.899124809623913], [80.06019893862828, 12.90516482927137], [80.06102496435875, 12.911222559874886], [80.06140121414757, 12.913915253049083], [80.06192293593551, 12.918229412332266], [80.06240455030803, 12.922542579673745], [80.05969389072698, 12.923462060020881], [80.0553132943333, 12.924458416246523], [80.04973728336387, 12.92574120224748], [80.0489725141822, 12.926945804781326], [80.05133760813504, 12.92949051060424], [80.05274353714259, 12.937456626142136], [80.0530214867382, 12.942475102715434], [80.05112627267607, 12.945782143563918], [80.04766967053109, 12.950471260559425], [80.04883142388792, 12.954367719571735], [80.04896008173387, 12.95815898694434], [80.04872908920817, 12.96209935685772], [80.04846594915443, 12.96521040844027], [80.04959267993473, 12.968474011438786], [80.05048704649687, 12.97086352382513], [80.05267173506775, 12.976047335060855], [80.0520584848365, 12.978202385194777], [80.0475034079056, 12.976116687049398], [80.04382293138434, 12.974052619628026], [80.0416363472878, 12.969184756427694], [80.0393919738716, 12.97141764238313], [80.03926478207939, 12.977333620933166], [80.03774158330822, 12.978874639040612], [80.035258517371, 12.98118062035229], [80.03608856629904, 12.981753498060414], [80.04120663799262, 12.983024597007216], [80.04455211780794, 12.992144021691615], [80.04761551917977, 12.99675803829274], [80.04704808035092, 12.998124876416853], [80.04080115632678, 12.998838720477863], [80.03671342203472, 13.002920058901339], [80.03049897204619, 13.004503049866344], [80.02733863088463, 13.006950278181762], [80.02901121576662, 13.011529254672723], [80.02276206970924, 13.01251921819619], [80.01818446334914, 13.013313526257775], [80.01885366443338, 13.023984629166307], [80.02208985426398, 13.026906052186234], [80.02548327832096, 13.030067717863062], [80.0273541392117, 13.034691418638033], [80.02371005083785, 13.037995026610133], [80.02029503688641, 13.037516214687912], [80.01520024716604, 13.038336909938664], [80.01613916520978, 13.040175175341517], [80.01757971850276, 13.043999530939232], [80.01940127991577, 13.049844887066342], [80.01505123945424, 13.051868340214696], [80.01163147750651, 13.052059936660953], [80.01136842923034, 13.060064094709674], [80.01244549509317, 13.079308297607213], [80.00890298800334, 13.084863312609684], [80.00479650499835, 13.091194045446855], [80.00390381922591, 13.093500182004107], [80.00739712990435, 13.09413892782834], [80.01219534342277, 13.095599291692679], [80.01391532355177, 13.099193240789589], [80.01432849402647, 13.102202520873561], [80.01294760568663, 13.105838277004352], [80.01252437893606, 13.109063546263314], [80.00977075430148, 13.110337137140505], [80.012097976745, 13.112683409498459], [80.01592541991613, 13.111278700108016], [80.01779300229981, 13.111324889384605], [80.01771925270566, 13.115584822031963], [80.01547424368482, 13.117896690996474], [80.01585684177081, 13.119800517287956], [80.01635591977413, 13.121943578295543], [80.01681110189475, 13.124717222362847], [80.0161548753212, 13.12714738401877], [80.01536048974202, 13.12712773717709], [80.01313938184262, 13.131374060460132], [80.01211654357343, 13.134979172564783], [80.01156952649575, 13.138793228427062], [80.01261508903826, 13.142173322056237], [80.0131908886292, 13.144752452427383], [80.01631757373934, 13.146487470761883], [80.01776860934478, 13.149009248848301], [80.02030425843407, 13.150058481544761], [80.02137013966143, 13.150913687437537], [80.02383966124722, 13.155275698810954], [80.02381203827417, 13.158708249013273], [80.02465520724917, 13.16263568585623], [80.0289766600414, 13.164084258415699], [80.03194675169755, 13.165499408946175], [80.03320425929036, 13.167306054379935], [80.03629718786618, 13.168250892820879], [80.03612884605764, 13.169390926407516], [80.03325460395286, 13.170859030980694], [80.03125782247969, 13.17199334273812], [80.03136670288433, 13.173337729441073], [80.03148456578293, 13.178470423690953], [80.03150973811421, 13.180246911991048], [80.03216064770265, 13.183301571232505], [80.03446077971142, 13.184029305309082], [80.03619950338594, 13.185374502130912], [80.03955662848921, 13.18806191995003], [80.04415084813922, 13.190188085542616], [80.04723902871893, 13.19180333235181], [80.0487444347682, 13.192392913075253], [80.04868813493192, 13.194404061449461], [80.04972091780769, 13.194548102455656], [80.05313878681363, 13.19467213297554], [80.05586953905487, 13.19616036286277], [80.05995547735012, 13.197287115733332], [80.06415820561381, 13.198614575022816], [80.06675310395502, 13.202190663339877], [80.0679074551245, 13.202022037205097], [80.07189594098361, 13.20038431455572], [80.07528450881046, 13.199244925264907], [80.0784598542557, 13.199757309040649], [80.0785061630479, 13.202284165749063], [80.08181445081232, 13.20283933683504], [80.08345176666893, 13.205208045703216], [80.08633196016365, 13.20460843207212], [80.08741563411314, 13.20333303913418], [80.09063457763273, 13.203412650439986], [80.09190733552822, 13.203404629080069], [80.09743815682748, 13.202752394140589], [80.10852339049643, 13.203420906876943], [80.10761832334828, 13.207265606765361], [80.10814036035481, 13.211540595613087], [80.10882566466626, 13.215306130670001], [80.11111530565734, 13.2172571221804], [80.11535941512972, 13.2184272863243], [80.1152967757015, 13.221306621658869], [80.11409551538594, 13.225696344897642], [80.1164935506809, 13.225755653400654], [80.11663331869283, 13.228166323460869], [80.11521676958779, 13.231248527656021], [80.11702585268017, 13.233739982785494], [80.1179883679157, 13.23763087195033], [80.11867208321502, 13.241593864529762], [80.12098563049517, 13.245478668220414], [80.1244044503245, 13.245484545295767], [80.1278607372509, 13.240834598736058], [80.13300811012334, 13.243369117493046], [80.13292832745077, 13.24837874658823], [80.13242372031021, 13.256731782387646], [80.134352773979, 13.25902870782221], [80.14137537390349, 13.260820259901891], [80.14910316208301, 13.258841167392973], [80.15849358795401, 13.25769221933325], [80.16934077341199, 13.258434164494417], [80.17293184045639, 13.261719216395136], [80.17669864279151, 13.267849999778832], [80.18736826921656, 13.270796948873226], [80.19440387224915, 13.270892276674317], [80.19796890533269, 13.277412421254837], [80.20313511352833, 13.282591294203826], [80.20770289222105, 13.283098616444931], [80.21117546076204, 13.281329957104504], [80.22098340939658, 13.277744943737275], [80.22664914764528, 13.275201681751923], [80.2312767055443, 13.273185092198787], [80.2334918608538, 13.27450257282186], [80.23914775497855, 13.27318258426925], [80.24246372748189, 13.271094378193993], [80.24419896049716, 13.272873339427633], [80.2442925880153, 13.276032713993686], [80.24405620930514, 13.280722796354041], [80.2458481378639, 13.285265546235905], [80.25260557914868, 13.285353673373152], [80.25380615130058, 13.28925045019082], [80.25369015136255, 13.29216764403833], [80.25840100655523, 13.291297632774445], [80.26244715265398, 13.292384223267902], [80.26522976066514, 13.29241354370589], [80.26881374944628, 13.291673660101765]]]]}}]}