{"type": "FeatureCollection", "features": [{"type": "Feature", "properties": {"Zone_No": "VII", "Ward_No": 86, "Zone_Name": "AMBATTUR", "AREA": 0.000496, "PERIMETER": 0.126414}, "geometry": {"type": "Polygon", "coordinates": [[[80.17743191318766, 13.09260019183814], [80.17738334698676, 13.088147317092137], [80.17631560340314, 13.088223492988702], [80.17386233981338, 13.088378877977226], [80.17189413245032, 13.088664943223387], [80.1694215340549, 13.088607327327098], [80.16834213641741, 13.088771068666057], [80.16485336942274, 13.08889886701911], [80.16343524891887, 13.089124413107786], [80.1616386549812, 13.0891134855723], [80.16139576999896, 13.085343974142937], [80.16108089943424, 13.079748251222318], [80.16103122258716, 13.07974168815826], [80.16072941524577, 13.079902784438092], [80.16044953590315, 13.080203670076083], [80.15977639459103, 13.080548715746954], [80.15878188170673, 13.080635770748874], [80.15674309052021, 13.08122854601328], [80.15562790672443, 13.081920042981576], [80.1548411858049, 13.082031637846837], [80.15412241566924, 13.082306577994643], [80.15393399095458, 13.082724399879458], [80.15360730090455, 13.08309482879018], [80.15305089089061, 13.083300928478831], [80.15250224600304, 13.083761235549472], [80.15143826239918, 13.08422649895127], [80.15123895353481, 13.084473568227763], [80.15145660987284, 13.084971455182698], [80.1512056878041, 13.085491320228261], [80.15053632971905, 13.085934155731335], [80.15013834233953, 13.086353813654501], [80.14956968926805, 13.086548980136504], [80.14784538257966, 13.086389523351064], [80.14742715667944, 13.08628766693152], [80.14700430822097, 13.086732001795262], [80.14613858289982, 13.087074330303082], [80.14601238645845, 13.087421156893871], [80.14605895687211, 13.087744206160682], [80.14627955483806, 13.087894516844662], [80.14632696571675, 13.088118258605217], [80.14612681638735, 13.088464635387625], [80.14580026050028, 13.089182665637315], [80.14555038901281, 13.089578396300697], [80.14532705953482, 13.089750835011449], [80.14500470597369, 13.089972327730834], [80.14468403334284, 13.089995205437996], [80.14448535482752, 13.090167794085014], [80.1446560205194, 13.090392285526017], [80.1446785703192, 13.090640704227372], [80.14452688244991, 13.09108668838775], [80.14459642289576, 13.09160850260287], [80.14483852008011, 13.09213136637056], [80.14498222353019, 13.092628803517234], [80.1448789971211, 13.093174395055874], [80.14392923332981, 13.094707963828203], [80.14355232493601, 13.095549828587947], [80.14268386810286, 13.096214906490681], [80.14181625173508, 13.096780676887164], [80.14141763400667, 13.097274815439865], [80.14069687283323, 13.097965619835632], [80.14291344706989, 13.097611487506692], [80.14479464192209, 13.097424821999084], [80.1460168377554, 13.097630363453634], [80.14688954204807, 13.097811767216536], [80.1474762702759, 13.098211551143473], [80.14821411971842, 13.098832373818231], [80.14881748687739, 13.099848593756036], [80.14935677971101, 13.100688328311525], [80.1499136428924, 13.102034444756157], [80.15006010702429, 13.102805754112905], [80.15023159283639, 13.103203012384965], [80.15038308661782, 13.103380029484148], [80.15055885694613, 13.10327103879588], [80.15069147639674, 13.103095749776406], [80.15099123742694, 13.10124856861056], [80.15121295288297, 13.100875713888543], [80.15151985239531, 13.10076752077573], [80.15578136458832, 13.100815452794675], [80.15588747209196, 13.101190301454752], [80.15636554456592, 13.104098787640842], [80.15785521469977, 13.103689621164001], [80.15833751197388, 13.103516459011793], [80.15882204464779, 13.103079166967136], [80.15961776135018, 13.102027432849562], [80.16018822321352, 13.101766759116705], [80.1604254225738, 13.101689390509355], [80.16339014311733, 13.10173170137189], [80.1648648683088, 13.101230825675593], [80.16643539746767, 13.10080336776656], [80.16701679610398, 13.100467007037643], [80.16774035971551, 13.10042285129863], [80.16858403784757, 13.100427982854809], [80.16923651897137, 13.100237724620733], [80.16984078991622, 13.100047173154934], [80.17003363063218, 13.100048346082058], [80.17015127959115, 13.10038895867198], [80.17016552243467, 13.101554406466146], [80.1710898002382, 13.103429461793164], [80.1713055132629, 13.103576443983348], [80.17200435539456, 13.103604972952143], [80.1723665481272, 13.10353434086681], [80.17268053068096, 13.10346341554975], [80.17289953112103, 13.103221964013901], [80.17285563567461, 13.102711851516647], [80.17262444702585, 13.101545084179287], [80.1726986114654, 13.101327030055876], [80.17310921984057, 13.10123241409454], [80.17397782491601, 13.101140583834963], [80.17467810529182, 13.100999173048633], [80.1771526102064, 13.099861001898976], [80.17896562850444, 13.099265070393676], [80.17985916052311, 13.099076278318506], [80.18039234898023, 13.098739624357812], [80.18092389372987, 13.098597187260019], [80.18116515008819, 13.098574376310976], [80.18100037506156, 13.098295750332902], [80.18082858069452, 13.098049538894317], [80.17983945303659, 13.097815868032956], [80.17830955255671, 13.097789050729203], [80.17829972384374, 13.096895884328271], [80.17680474539725, 13.096851767538622], [80.17680529068979, 13.094732831621291], [80.1769480910261, 13.094295902822395], [80.17717975254769, 13.093631859880816], [80.17743191318766, 13.09260019183814]]]}}, {"type": "Feature", "properties": {"Zone_No": "VII", "Ward_No": 85, "Zone_Name": "AMBATTUR", "AREA": 0.000365, "PERIMETER": 0.106745}, "geometry": {"type": "Polygon", "coordinates": [[[80.16405091334926, 13.114577848695232], [80.16395095947777, 13.113548465541866], [80.16315207049033, 13.106562282439343], [80.16324411523294, 13.106358178068115], [80.16356136439319, 13.106223664878705], [80.1642852131768, 13.106068884306634], [80.17426996323728, 13.10551562251364], [80.17419793314691, 13.103354839849487], [80.17282201676429, 13.10330742484922], [80.17268053068096, 13.10346341554975], [80.1723665481272, 13.10353434086681], [80.17200435539456, 13.103604972952143], [80.1713055132629, 13.103576443983348], [80.1710898002382, 13.103429461793164], [80.17016552243467, 13.101554406466146], [80.17015127959115, 13.10038895867198], [80.17003363063218, 13.100048346082058], [80.16984078991622, 13.100047173154934], [80.16923651897137, 13.100237724620733], [80.16858403784757, 13.100427982854809], [80.16774035971551, 13.10042285129863], [80.16701679610398, 13.100467007037643], [80.16643539746767, 13.10080336776656], [80.1648648683088, 13.101230825675593], [80.16339014311733, 13.10173170137189], [80.1604254225738, 13.101689390509355], [80.16018822321352, 13.101766759116705], [80.15961776135018, 13.102027432849562], [80.15882204464779, 13.103079166967136], [80.15833751197388, 13.103516459011793], [80.15785521469977, 13.103689621164001], [80.15636554456592, 13.104098787640842], [80.15588747209196, 13.101190301454752], [80.15578136458832, 13.100815452794675], [80.15151985239531, 13.10076752077573], [80.15121295288297, 13.100875713888543], [80.15099123742694, 13.10124856861056], [80.15069147639674, 13.103095749776406], [80.15055885694613, 13.10327103879588], [80.15038308661782, 13.103380029484148], [80.15023159283639, 13.103203012384965], [80.15006010702429, 13.102805754112905], [80.1499136428924, 13.102034444756157], [80.14935677971101, 13.100688328311525], [80.14881748687739, 13.099848593756036], [80.14821411971842, 13.098832373818231], [80.1474762702759, 13.098211551143473], [80.14688954204807, 13.097811767216536], [80.1460168377554, 13.097630363453634], [80.14479464192209, 13.097424821999084], [80.14291344706989, 13.097611487506692], [80.14069687283323, 13.097965619835632], [80.14040043093242, 13.098038301232265], [80.14029951580257, 13.098310797129495], [80.14035308740999, 13.100719453958893], [80.14024103611652, 13.102307774311127], [80.14017660581803, 13.104095009547658], [80.14018696887268, 13.105783387086197], [80.14035511316912, 13.106305801045785], [80.14076514453363, 13.107375905648935], [80.14122216654441, 13.108719405766132], [80.14131257585954, 13.109688253694603], [80.14159542755743, 13.11413421375881], [80.14180432785689, 13.115057012521914], [80.14440506629008, 13.114828840628583], [80.14649033496165, 13.114742727962918], [80.14936179435583, 13.114488504149602], [80.15090839892405, 13.114300319108171], [80.15490602297388, 13.114275236093704], [80.15949198366967, 13.11427843056251], [80.16025093435245, 13.11443124081387], [80.16208867640528, 13.114615311671619], [80.16405091334926, 13.114577848695232]]]}}, {"type": "Feature", "properties": {"Zone_No": "XII", "Ward_No": 156, "Zone_Name": "ALANDUR", "AREA": 0.000264, "PERIMETER": 0.091122}, "geometry": {"type": "Polygon", "coordinates": [[[80.17708691556763, 13.023864246879151], [80.17700033273469, 13.023515134056622], [80.17676962214662, 13.023126560207237], [80.17591116579348, 13.019889306063058], [80.17568330438483, 13.019164079470132], [80.17533503038838, 13.018842124571977], [80.17507060814717, 13.018487012683435], [80.17457057095237, 13.017675426317933], [80.17451587724757, 13.017427228898235], [80.1742134741681, 13.017368190014755], [80.17395070690466, 13.017099660496754], [80.17359280333743, 13.016887751883619], [80.17313944075302, 13.016770595251547], [80.17245891280676, 13.016652056917188], [80.1724268607505, 13.015965467264847], [80.17235259117247, 13.015793416855493], [80.1720684731133, 13.01581075526582], [80.1711580367431, 13.01601494937576], [80.17017252401169, 13.016142420766332], [80.16958761643909, 13.01591006491305], [80.16887051845183, 13.015638771990922], [80.1687967329437, 13.015409524967462], [80.16864593479522, 13.015332341680617], [80.16824742727233, 13.015444316930116], [80.16798288508659, 13.015385508330318], [80.16790877686506, 13.015194392382837], [80.16772140867597, 13.014964454508169], [80.1674190055964, 13.014905415624868], [80.16709638121729, 13.0149987859037], [80.16679236457189, 13.015130402400292], [80.16665856059136, 13.015282120711571], [80.16648737978691, 13.01537641212506], [80.16501145036041, 13.015291168909673], [80.16488006672883, 13.015156904150727], [80.16469285989629, 13.014907900737992], [80.1643335041197, 13.014867581967078], [80.1641438769383, 13.014904561624665], [80.16389632892015, 13.015074654622984], [80.16353697314352, 13.015034335852073], [80.16338665906505, 13.014899955951115], [80.16321935081876, 13.014536674452275], [80.16308893532674, 13.014288016465223], [80.16280659219008, 13.014095633957515], [80.16242766054039, 13.01413146219672], [80.16225647973587, 13.014225753610207], [80.16214128348913, 13.014415718139471], [80.16204566311545, 13.014529535658275], [80.16185635864696, 13.014528384239883], [80.16174326003592, 13.014470496774743], [80.16157985958128, 13.014261119052469], [80.1614407573276, 13.0145526934536], [80.1611003866281, 13.014705847837867], [80.16042279796194, 13.014639636641101], [80.16005318025992, 13.014606343563875], [80.15967962164136, 13.015038700443235], [80.15933951366964, 13.015160811497111], [80.15878574393565, 13.015033263555052], [80.15826673848728, 13.014440253135142], [80.15784072860203, 13.013785718491041], [80.15741156598355, 13.013503703812404], [80.15652084101085, 13.013125746958812], [80.15593545972477, 13.013091141529264], [80.1552850162393, 13.013459724437771], [80.15391880434152, 13.014631121923115], [80.15357422999784, 13.015280969594473], [80.15335268640298, 13.015962610512121], [80.15316643254938, 13.016116702290905], [80.15264190981816, 13.016175601810454], [80.1522999627519, 13.016515016177427], [80.15149435150973, 13.017006835013218], [80.15019635454411, 13.0174025241951], [80.1493014259275, 13.017521260628778], [80.1489939804192, 13.01742625584828], [80.14878215775146, 13.01695929353926], [80.14794992678412, 13.016954231608882], [80.14764090490932, 13.017045486811272], [80.14751524688285, 13.017324126869655], [80.14747496531434, 13.018441499286917], [80.14749291502359, 13.019962809957844], [80.14736200244201, 13.0208623166253], [80.14699028291776, 13.021077370191563], [80.14637171371255, 13.02132196725694], [80.14513799076282, 13.021407598092294], [80.1448903528985, 13.021530271582865], [80.14485663952392, 13.021871560738866], [80.14506215672567, 13.02308356297882], [80.14524420693542, 13.023426164486967], [80.14542651987277, 13.023737722664949], [80.14545419050881, 13.024110430109316], [80.1452608803428, 13.02462504679949], [80.1459334264501, 13.024839838289395], [80.1465110496863, 13.024932973005], [80.14668996134459, 13.024822034458463], [80.14704892233682, 13.024465732182367], [80.14771723388382, 13.024357770343272], [80.14825074544605, 13.024405826054737], [80.14915617243601, 13.0251955204549], [80.1495543151762, 13.025466806308522], [80.14984293718175, 13.025535777863531], [80.15033404358309, 13.025337116796795], [80.1507574655732, 13.025250070801077], [80.15111282392733, 13.025319448270576], [80.15137635629533, 13.025724347477802], [80.1516645990759, 13.025838127426834], [80.15197660420624, 13.025772809103932], [80.15396213758535, 13.025112725324666], [80.1546302595198, 13.025027167682701], [80.1552305074306, 13.025075629308995], [80.15585356962842, 13.025057013648576], [80.15661237987358, 13.024770359452088], [80.15759364461341, 13.024485058304293], [80.15799463154161, 13.024420281200758], [80.15826138732263, 13.024444309056522], [80.15868461970038, 13.02437966725787], [80.159018491055, 13.024359292634099], [80.15932935851004, 13.024428399493942], [80.1595508649421, 13.024541773528485], [80.159706393476, 13.024565124859812], [80.15984119346045, 13.024409107309257], [80.15982160258648, 13.02409531324451], [80.15982558444965, 13.023624825104552], [80.16007274935684, 13.023335058895562], [80.1606971388424, 13.023159613855208], [80.16136507116413, 13.023096460410537], [80.16183222560312, 13.023099301813152], [80.1621877735698, 13.023146275085532], [80.16247374099997, 13.023528905400399], [80.16262452922038, 13.024112361660187], [80.16262130580738, 13.024493233011311], [80.16286505768905, 13.02460674235091], [80.16326604461726, 13.024541965247437], [80.16419997427008, 13.02459245644685], [80.16475781701983, 13.024394201294777], [80.16522554029629, 13.024329830106069], [80.16540445195477, 13.02421889155936], [80.16542878314203, 13.02397258069582], [80.16534473126994, 13.023389530350686], [80.16530346378406, 13.023008388389744], [80.16553008975443, 13.022516849101404], [80.16566659625191, 13.02215919377667], [80.16551220539323, 13.02200141726242], [80.16551448074364, 13.02173256689692], [80.16587154561044, 13.02160030659218], [80.16622804163951, 13.021535258879048], [80.16638186366066, 13.021760247984616], [80.16655394926786, 13.022455860534913], [80.16683858941052, 13.02299532022966], [80.16725746069991, 13.023445974965282], [80.16749874761855, 13.023850738867502], [80.16751075399134, 13.025060700817699], [80.16753091370308, 13.025307282291015], [80.16772998507322, 13.025442925217911], [80.16831007327221, 13.025244805370548], [80.16857720827848, 13.025224024832115], [80.16915596918999, 13.02518273436497], [80.17038269232411, 13.02480930478237], [80.17176304786673, 13.024683268502574], [80.17334323322973, 13.024603258360946], [80.17423039663335, 13.02492232931626], [80.17474204197127, 13.024925441328644], [80.17503180165208, 13.02485998770068], [80.17536908603223, 13.024436337528426], [80.17575105092396, 13.023990553768895], [80.17637600924708, 13.023747896137108], [80.17682243513693, 13.023571368657725], [80.17708691556763, 13.023864246879151]]]}}, {"type": "Feature", "properties": {"Zone_No": "XI", "Ward_No": 150, "Zone_Name": "VALASARAVAKKAM", "AREA": 8.6e-05, "PERIMETER": 0.042749}, "geometry": {"type": "Polygon", "coordinates": [[[80.16075546247254, 13.041056827266315], [80.1608325466493, 13.040086237979871], [80.16100048673985, 13.039532350732092], [80.16089248988578, 13.03782586334564], [80.16030142611825, 13.037740059582315], [80.15940601915284, 13.037446882945094], [80.15796279443109, 13.036780435134876], [80.157151966264, 13.03613838596431], [80.1570134760034, 13.035623739245795], [80.15660988817888, 13.035086927932923], [80.15637006613858, 13.034489456178411], [80.15614664922076, 13.034364784226813], [80.1559837530837, 13.034322689083803], [80.15504423045999, 13.03441973544084], [80.15330906728582, 13.034491390248794], [80.15090278371126, 13.034291784786538], [80.14790305777844, 13.033917979272193], [80.14682587805265, 13.033939971664674], [80.14671010049632, 13.034224709365027], [80.14673264342757, 13.03490990704237], [80.14695260344648, 13.035710482242571], [80.14686202603032, 13.036366447690801], [80.14634561675197, 13.037105455645843], [80.1461150278974, 13.037560760162881], [80.146078957357, 13.038473954852888], [80.14601913606337, 13.038844665469874], [80.14598330708742, 13.039729317438947], [80.1460072994054, 13.040243258791145], [80.1462611558844, 13.040387523788883], [80.14660051692628, 13.04047522047633], [80.14702538253074, 13.040506348852961], [80.14719300975386, 13.04079281032368], [80.14730395602122, 13.041078927040507], [80.14761497658509, 13.041166451350717], [80.14823798397065, 13.04122732908764], [80.1486061686193, 13.041258112710336], [80.1489196048277, 13.041060209811961], [80.14920349273581, 13.041004848140904], [80.14962980772708, 13.040864720192575], [80.14963802091836, 13.0398942676837], [80.1498940514774, 13.03978164819395], [80.15026271925511, 13.039755346374783], [80.15037390708666, 13.040012920370666], [80.15050932880064, 13.040755892997883], [80.15062075819684, 13.040984924272891], [80.15081889997782, 13.041014673633239], [80.15297205160716, 13.041113402452197], [80.1578177902044, 13.041199964370836], [80.15852726841054, 13.04109010291402], [80.15895092619287, 13.041263944894869], [80.15940413227528, 13.041295245648682], [80.159774007875, 13.041126230225359], [80.16048300295223, 13.041073454210181], [80.16075546247254, 13.041056827266315]]]}}, {"type": "Feature", "properties": {"Zone_No": "XI", "Ward_No": 153, "Zone_Name": "VALASARAVAKKAM", "AREA": 0.000188, "PERIMETER": 0.068421}, "geometry": {"type": "Polygon", "coordinates": [[[80.16750393618194, 13.024373624868412], [80.16749874761855, 13.023850738867502], [80.16725746069991, 13.023445974965282], [80.16683858941052, 13.02299532022966], [80.16655394926786, 13.022455860534913], [80.16638186366066, 13.021760247984616], [80.16622804163951, 13.021535258879048], [80.16587154561044, 13.02160030659218], [80.16551448074364, 13.02173256689692], [80.16551220539323, 13.02200141726242], [80.16566659625191, 13.02215919377667], [80.16553008975443, 13.022516849101404], [80.16530346378406, 13.023008388389744], [80.16534473126994, 13.023389530350686], [80.16542878314203, 13.02397258069582], [80.16540445195477, 13.02421889155936], [80.16522554029629, 13.024329830106069], [80.16475781701983, 13.024394201294777], [80.16419997427008, 13.02459245644685], [80.16326604461726, 13.024541965247437], [80.16286505768905, 13.02460674235091], [80.16262130580738, 13.024493233011311], [80.16262452922038, 13.024112361660187], [80.16247374099997, 13.023528905400399], [80.1621877735698, 13.023146275085532], [80.16183222560312, 13.023099301813152], [80.16136507116413, 13.023096460410537], [80.1606971388424, 13.023159613855208], [80.16007274935684, 13.023335058895562], [80.15982558444965, 13.023624825104552], [80.15982160258648, 13.02409531324451], [80.15984119346045, 13.024409107309257], [80.159706393476, 13.024565124859812], [80.1595508649421, 13.024541773528485], [80.15932935851004, 13.024428399493942], [80.159018491055, 13.024359292634099], [80.15868461970038, 13.02437966725787], [80.15826138732263, 13.024444309056522], [80.15799463154161, 13.024420281200758], [80.15759364461341, 13.024485058304293], [80.15661237987358, 13.024770359452088], [80.15585356962842, 13.025057013648576], [80.1552305074306, 13.025075629308995], [80.1546302595198, 13.025027167682701], [80.15396213758535, 13.025112725324666], [80.15197660420624, 13.025772809103932], [80.1516645990759, 13.025838127426834], [80.15137635629533, 13.025724347477802], [80.15111282392733, 13.025319448270576], [80.1507574655732, 13.025250070801077], [80.15033404358309, 13.025337116796795], [80.14984293718175, 13.025535777863531], [80.1495543151762, 13.025466806308522], [80.14915617243601, 13.0251955204549], [80.14825074544605, 13.024405826054737], [80.14771723388382, 13.024357770343272], [80.14704892233682, 13.024465732182367], [80.14668996134459, 13.024822034458463], [80.1465110496863, 13.024932973005], [80.1459334264501, 13.024839838289395], [80.1452608803428, 13.02462504679949], [80.14515774157535, 13.026765233731851], [80.14517786886212, 13.027735858617614], [80.14531618934944, 13.028136318594772], [80.14540056352742, 13.03156213460454], [80.14707168546748, 13.031686475734501], [80.14738270603141, 13.031774000044487], [80.14749316916966, 13.032117202202945], [80.14788027328274, 13.033261324315609], [80.14790305777844, 13.033917979272193], [80.15090278371126, 13.034291784786538], [80.15330906728582, 13.034491390248794], [80.15504423045999, 13.03441973544084], [80.1559837530837, 13.034322689083803], [80.15614664922076, 13.034364784226813], [80.15637006613858, 13.034489456178411], [80.15641027563356, 13.034589630614072], [80.15688369350168, 13.034260715219785], [80.15803792145213, 13.034267735652522], [80.15901877784235, 13.034446843534631], [80.15970682165292, 13.03440155933552], [80.16012514565539, 13.034305165472114], [80.16041984215326, 13.034306957923024], [80.16246778851416, 13.03318162426505], [80.16525540665963, 13.031714505643084], [80.16565105653913, 13.03139536277846], [80.16592286958968, 13.031199139520458], [80.16590082343932, 13.03090219064263], [80.16581012694701, 13.030011194637954], [80.16575173349386, 13.028205216191354], [80.16566773537814, 13.026522754834842], [80.16557557361571, 13.025804891876028], [80.16555478341095, 13.02535954324477], [80.1658998519376, 13.02521323468407], [80.16750393618194, 13.024373624868412]]]}}]}