{"type": "FeatureCollection", "features": [{"type": "Feature", "properties": {"Zone_No": "VII", "Zone Name": "Zone 7"}, "geometry": {"type": "Polygon", "coordinates": [[[80.18230176724862, 13.13529910448071], [80.18262505425609, 13.135264926082732], [80.18276247877, 13.13536705336554], [80.1828212080613, 13.135410698147462], [80.18547229134006, 13.138083461866609], [80.18772382964413, 13.139199571307921], [80.18795739967366, 13.139164847218984], [80.18822731532448, 13.13907612707744], [80.18833635218766, 13.138914138919796], [80.18850181927401, 13.1384452636459], [80.18908090211933, 13.13787046989304], [80.18933547441048, 13.137474426082049], [80.18941015391573, 13.137131505217988], [80.18934159214275, 13.136751568361968], [80.18905893316938, 13.136225750302918], [80.18888286396599, 13.135827087174187], [80.18884927132443, 13.135555797252815], [80.18886874415293, 13.135375191960671], [80.18921028044302, 13.135304979815151], [80.18953341450697, 13.135288872860537], [80.18969551684066, 13.135217569332566], [80.18991083758776, 13.135218878991436], [80.19017922380527, 13.135310873279801], [80.19118390101586, 13.135335056464056], [80.19145507570452, 13.13530959728689], [80.19187312681896, 13.134679606961116], [80.19290538285365, 13.133565398374033], [80.19314522355863, 13.13278974512165], [80.19402562446122, 13.130536053381133], [80.19411931796529, 13.130066741553955], [80.1945672910822, 13.130141755781763], [80.19471083824683, 13.130142628887617], [80.19480239054485, 13.129926317262827], [80.19479163548453, 13.129076850303298], [80.19463366262033, 13.128660224869856], [80.19467107884466, 13.128479728716455], [80.19492350992951, 13.128336685107675], [80.19519250792014, 13.128356393624005], [80.19551457138128, 13.12846678677054], [80.19590993785765, 13.128396902039649], [80.1963595933511, 13.128273130394449], [80.19666539579288, 13.128184628529324], [80.19689865993563, 13.128186047326404], [80.19707595268535, 13.128440138910621], [80.19727210649064, 13.128585910975351], [80.19746978972887, 13.128550968609906], [80.19784767163969, 13.128426760412134], [80.198618931764, 13.12846759624214], [80.19901292175068, 13.12856035449815], [80.19924343291407, 13.128887059269475], [80.19951166618824, 13.128997125001026], [80.19999567903965, 13.129054286062333], [80.20058735226446, 13.129112101953341], [80.20098210696779, 13.129114502994485], [80.2011981924317, 13.129025455438311], [80.20178336549824, 13.128864643423674], [80.20170525770628, 13.12841020574916], [80.2016869844852, 13.12572758836342], [80.20166172616292, 13.12387031502705], [80.20221640161365, 13.121273721176005], [80.2022445726238, 13.120365967332623], [80.20233036402658, 13.11991252655241], [80.20258040387941, 13.119418815463776], [80.20287141853107, 13.118925353598895], [80.20287380939716, 13.118642854145909], [80.20287491108141, 13.118512681574165], [80.20238984934255, 13.117725614043549], [80.20045169791653, 13.114329740706795], [80.19940067260627, 13.112631305591135], [80.19903574122313, 13.112175123351863], [80.19842216700734, 13.112047583390515], [80.19760162326772, 13.112166400526645], [80.19743981960302, 13.11191780041708], [80.19736729989162, 13.110803087502484], [80.19712983322015, 13.109811179300864], [80.19606399271878, 13.107937118673293], [80.19571667056694, 13.107326424325935], [80.19515489805603, 13.10591985031063], [80.19485224602894, 13.102946617941877], [80.19463589194984, 13.102175693604265], [80.19457380455862, 13.101954460516948], [80.194456118988, 13.101334704808595], [80.19462770179383, 13.100427823248081], [80.19500223769035, 13.099749157419302], [80.19541582748299, 13.099297710427335], [80.19542071705342, 13.098719969592162], [80.19543740979333, 13.096747592383048], [80.19546157989267, 13.09389170689966], [80.1955904416247, 13.093190912127847], [80.1957967126384, 13.093027089435813], [80.19604535547121, 13.092698447157266], [80.19605443610213, 13.091625499892187], [80.19617945602836, 13.09137864434827], [80.19659025178079, 13.091257334976211], [80.19839523845488, 13.091020697598696], [80.19872478311977, 13.090816355374843], [80.19867112318025, 13.087473213525], [80.19834576957575, 13.087182349319212], [80.19756480361478, 13.087466484488383], [80.19699115643259, 13.087462995358331], [80.19662378026425, 13.087295683536157], [80.19662692355965, 13.086924278713704], [80.19695611896952, 13.086761203692307], [80.19720336478233, 13.086597630223848], [80.19729125171516, 13.085896586228815], [80.19718613932571, 13.083791211230475], [80.19723113055768, 13.08331688762537], [80.1973974745378, 13.083029014101863], [80.1982992693646, 13.082993229818237], [80.19858748997571, 13.082829905573353], [80.19867223361342, 13.082500266400595], [80.19867817094911, 13.081798723957702], [80.19824840346547, 13.079319950348486], [80.19823956526338, 13.079249589134209], [80.19789395662382, 13.076498187477478], [80.19786450035075, 13.076263685127584], [80.19770374445122, 13.075891283411009], [80.19725441868529, 13.075723473141773], [80.19586476807942, 13.075302327514867], [80.19521196533982, 13.074968202317491], [80.19480186809751, 13.075006977284284], [80.19475670223855, 13.075501934490793], [80.19450840866077, 13.075789309566707], [80.19454868494938, 13.075872093195636], [80.19389273891491, 13.075909372820712], [80.19303296665167, 13.075821604720458], [80.192584688651, 13.075529992844034], [80.1925079778793, 13.074910486359345], [80.19222464683827, 13.074496069769056], [80.19124334719939, 13.074242485188345], [80.19067319256753, 13.07382632403303], [80.18972090202404, 13.073644178029861], [80.1892551575574, 13.073652113071285], [80.18883799778223, 13.07378923173855], [80.18842241385283, 13.073740152011512], [80.187064446224, 13.073080164434389], [80.18628008907241, 13.072912461708372], [80.18519293967596, 13.073022229258443], [80.18191350310121, 13.072746246565655], [80.18160265754001, 13.072689826373937], [80.17979054557127, 13.072360918010991], [80.17743471638708, 13.072183657022437], [80.17743077677383, 13.072649153007662], [80.17735691657009, 13.073184051702244], [80.17686904828201, 13.073483672276195], [80.17658956290077, 13.073738008315624], [80.1764716497188, 13.074016603093183], [80.1761429898617, 13.074619779996185], [80.17500312033786, 13.075497334796035], [80.17458300585297, 13.07598357545213], [80.17450071110036, 13.076493553365362], [80.17448544482455, 13.076588157981591], [80.17431599339896, 13.077494891213556], [80.17421725048654, 13.078239122538923], [80.1739109125897, 13.078935539201305], [80.17384972229368, 13.080704142819174], [80.17361468385216, 13.081168233177051], [80.17250028797908, 13.08176663094874], [80.17053200832505, 13.082220179105727], [80.1696538327774, 13.082214837723813], [80.16924061261567, 13.081886460405942], [80.16836283102975, 13.081834569425629], [80.1672529657118, 13.081897646814364], [80.16646525988857, 13.08212561567593], [80.16609313799545, 13.082402664264], [80.16590766799075, 13.082471364160083], [80.16549306896435, 13.082305910437094], [80.16516913664347, 13.082350492158076], [80.16500460973458, 13.082675355408865], [80.16437749120725, 13.083043957004156], [80.1637262778942, 13.083528792033258], [80.1630100685071, 13.083501159791075], [80.16211291967056, 13.08300690706202], [80.16163627928012, 13.08197986407856], [80.16159518101168, 13.081374438172707], [80.1613751131004, 13.080069643788258], [80.16121590466916, 13.079766087459118], [80.16108089943427, 13.079748251222275], [80.16103122258718, 13.079741688158228], [80.16072941524575, 13.079902784438099], [80.16044953590313, 13.080203670076104], [80.159776394591, 13.080548715746984], [80.1587818817067, 13.080635770748858], [80.15674309052024, 13.081228546013287], [80.15562790672445, 13.081920042981595], [80.15484118580493, 13.082031637846855], [80.15412241566925, 13.08230657799466], [80.15393399095457, 13.082724399879483], [80.15360730090454, 13.08309482879014], [80.15305089089065, 13.083300928478833], [80.152502246003, 13.083761235549515], [80.1514382623992, 13.084226498951276], [80.15123895353486, 13.08447356822778], [80.15145660987287, 13.084971455182734], [80.15120568780407, 13.085491320228234], [80.15053632971902, 13.085934155731346], [80.15013834233952, 13.086353813654513], [80.14956968926803, 13.086548980136511], [80.14784538257967, 13.086389523351047], [80.14742715667946, 13.086287666931481], [80.14700430822099, 13.086732001795228], [80.14613858289987, 13.08707433030308], [80.14601238645848, 13.087421156893905], [80.14605895687214, 13.087744206160709], [80.14627955483807, 13.087894516844697], [80.14632696571677, 13.088118258605194], [80.14612681638738, 13.08846463538765], [80.14580026050025, 13.089182665637308], [80.14555038901284, 13.089578396300658], [80.14532705953482, 13.089750835011435], [80.14500470597373, 13.0899723277308], [80.14468403334288, 13.089995205437996], [80.14448535482755, 13.090167794085014], [80.14465602051945, 13.090392285526006], [80.14467857031916, 13.090640704227349], [80.14452688244987, 13.091086688387707], [80.14459642289572, 13.091608502602833], [80.14483852008016, 13.092131366370582], [80.14498222353018, 13.092628803517256], [80.14487899712107, 13.09317439505587], [80.14392923332981, 13.094707963828197], [80.14355232493598, 13.095549828587968], [80.14268386810286, 13.096214906490674], [80.14181625173505, 13.096780676887162], [80.14141763400671, 13.097274815439905], [80.14069687283322, 13.097965619835636], [80.14040043093242, 13.09803830123227], [80.14029951580255, 13.098310797129495], [80.14035308740998, 13.100719453958861], [80.14024103611649, 13.10230777431117], [80.14017660581806, 13.104095009547686], [80.14018696887265, 13.105783387086175], [80.1403551131691, 13.106305801045822], [80.1407651445336, 13.107375905648974], [80.14122216654441, 13.108719405766175], [80.14131257585956, 13.109688253694637], [80.14159542755745, 13.11413421375883], [80.1418043278569, 13.115057012521921], [80.14180930180234, 13.1150789844907], [80.1420532900332, 13.115378406369723], [80.14232382027355, 13.115454536296175], [80.14244518404023, 13.115678727865218], [80.14258678632754, 13.116424433777082], [80.14282236990658, 13.117716930716336], [80.14348654244071, 13.120799661613999], [80.14384832246141, 13.121745331962961], [80.14386793063294, 13.12234132693518], [80.14363745720104, 13.123357879446948], [80.14355867163826, 13.123928447798535], [80.14365496420969, 13.124202143184624], [80.14416990291355, 13.124528041236902], [80.14500236250404, 13.125203464729859], [80.14762236574, 13.12730496551818], [80.14779240108307, 13.127603937588836], [80.14776333767823, 13.128125152059175], [80.1472647126414, 13.1316973734909], [80.14725819903629, 13.13246700666276], [80.14718067417118, 13.132888613755108], [80.14562752076361, 13.135808889145503], [80.14535026680204, 13.136527219267377], [80.14541077224705, 13.138116589172396], [80.14553087531606, 13.138489742000322], [80.14572766278476, 13.138540595242207], [80.14785016696882, 13.138255567227771], [80.14940548889562, 13.137991917559452], [80.14982434514451, 13.138019293349531], [80.15001924156654, 13.138293588479785], [80.15028493913218, 13.13894073656637], [80.15074595335231, 13.139812526029568], [80.15172736930037, 13.140364714756489], [80.1527321755131, 13.141066014678357], [80.1539851722829, 13.141570198949045], [80.15590836760288, 13.141532240211026], [80.15724267133092, 13.14116793361236], [80.15980931307566, 13.140835950694404], [80.15982440748076, 13.140830328625105], [80.16131785447253, 13.140274078636013], [80.16164104849909, 13.139953278410607], [80.16174595583853, 13.139209071859911], [80.16202173898623, 13.138664529873564], [80.16246923840738, 13.138220344946236], [80.16311562646015, 13.137578744495068], [80.16358884253866, 13.13680584469313], [80.16386388844231, 13.135226249092765], [80.16398590730488, 13.134059864484312], [80.16424916430658, 13.13387321945528], [80.16458748610339, 13.13387527725108], [80.16469773100415, 13.133875947800563], [80.16510732404879, 13.134066685347387], [80.16584792559404, 13.134899473469671], [80.16665946482799, 13.136184484068844], [80.16708955162518, 13.13837075655305], [80.16811645287667, 13.140711256081813], [80.1694133021284, 13.142074517013954], [80.17008232874713, 13.142530377284553], [80.17056923185962, 13.142420391053763], [80.17090884307264, 13.142045964185497], [80.17132417125862, 13.141559050102932], [80.1741784756734, 13.139995142487612], [80.1754950793012, 13.139024270030161], [80.17628166411707, 13.138840808070581], [80.17676952308638, 13.138617879901323], [80.17680913397739, 13.138354576074137], [80.17666693998135, 13.13748777843274], [80.17678163060722, 13.137187282017257], [80.17735372150322, 13.136877449893477], [80.18230176724862, 13.13529910448071]]]}}, {"type": "Feature", "properties": {"Zone_No": "XI", "Zone Name": "Zone 11"}, "geometry": {"type": "Polygon", "coordinates": [[[80.16516913664347, 13.082350492158076], [80.16549306896435, 13.082305910437094], [80.16590766799075, 13.082471364160083], [80.16609313799545, 13.082402664264], [80.16646525988857, 13.08212561567593], [80.1672529657118, 13.081897646814364], [80.16836283102975, 13.081834569425629], [80.16924061261567, 13.081886460405942], [80.1696538327774, 13.082214837723813], [80.17053200832505, 13.082220179105727], [80.17250028797908, 13.08176663094874], [80.17361468385216, 13.081168233177051], [80.17384972229368, 13.080704142819174], [80.1739109125897, 13.078935539201305], [80.17421725048654, 13.078239122538923], [80.17431599339896, 13.077494891213556], [80.17448544482455, 13.076588157981591], [80.17458300585297, 13.07598357545213], [80.17500312033786, 13.075497334796035], [80.1761429898617, 13.074619779996185], [80.1764716497188, 13.074016603093183], [80.17658956290077, 13.073738008315624], [80.17686904828201, 13.073483672276195], [80.17735691657009, 13.073184051702244], [80.17743077677383, 13.072649153007662], [80.17743471638708, 13.072183657022437], [80.17979054557127, 13.072360918010991], [80.18142342495976, 13.07265729466763], [80.18191350310121, 13.072746246565655], [80.18519293967596, 13.073022229258443], [80.18628008907241, 13.072912461708372], [80.187064446224, 13.073080164434389], [80.18842241385283, 13.073740152011512], [80.18883799778223, 13.07378923173855], [80.1892551575574, 13.073652113071285], [80.18972090202404, 13.073644178029861], [80.19067319256753, 13.07382632403303], [80.19063885361452, 13.073041997962006], [80.1909342339539, 13.072032696065724], [80.19144374354558, 13.069931059421188], [80.1916296458077, 13.067332222558056], [80.19143315393497, 13.066340563580189], [80.1911081495854, 13.066008432171591], [80.19028900286588, 13.065962180497456], [80.18996295075141, 13.065753850696312], [80.18984456667074, 13.065216629393225], [80.18985085326136, 13.064473819747965], [80.1902658400741, 13.063857303946266], [80.19125552183411, 13.063120475667253], [80.1914635391231, 13.062750316962498], [80.19130313247842, 13.062336648043468], [80.1911007032702, 13.062046531507784], [80.19090002033707, 13.061550078960002], [80.19061703855125, 13.061094395167347], [80.19033615229584, 13.06039110815996], [80.19030076557775, 13.059730583696302], [80.1900177837921, 13.059274899903913], [80.18969277944254, 13.058942768495315], [80.1896566942143, 13.058364778436568], [80.18964621169074, 13.0580867879701], [80.1895897625834, 13.056589790281889], [80.18968149132188, 13.055434807059049], [80.18952038616732, 13.055103672544663], [80.18927558514014, 13.054978375595757], [80.18849566694425, 13.05513870915774], [80.18775777131218, 13.055175490335843], [80.18690009457917, 13.054840119020769], [80.18669836388098, 13.05446746808053], [80.1865411005318, 13.053682394338514], [80.18601820728931, 13.052523672762048], [80.18582662776657, 13.051479638265947], [80.18578318540318, 13.051242894143153], [80.18583411397042, 13.05006702809551], [80.18609742551453, 13.04800516331189], [80.18634921164266, 13.04730511621098], [80.18684614805281, 13.046689098856342], [80.18685313315358, 13.04586375480635], [80.18699434308044, 13.045562047411904], [80.18710352226125, 13.04532877651526], [80.18755965850043, 13.044691876335731], [80.18777116833967, 13.043909045606336], [80.1880271455281, 13.042713792075164], [80.18849148926054, 13.04110711263696], [80.1887261419459, 13.037996329060627], [80.18876842175108, 13.037435826955898], [80.18905233934238, 13.032939197224755], [80.18905757816793, 13.032320189187482], [80.18881522192592, 13.031906021820769], [80.18878018446286, 13.031204230154833], [80.18853771626144, 13.02596155087213], [80.18850756836889, 13.024682018371111], [80.18887843708757, 13.024436658168467], [80.1899028070557, 13.024442888757934], [80.18988286721108, 13.023881884823693], [80.1895413258454, 13.023060861609656], [80.18897828602938, 13.022485474826459], [80.18830902500767, 13.022260418754191], [80.18785785214389, 13.022192678855967], [80.18758527826532, 13.0223730089264], [80.1870135477042, 13.022824501362637], [80.18653524198943, 13.02291258611564], [80.18613349441253, 13.023105129645026], [80.1858577302604, 13.023662415378231], [80.18577622169819, 13.024142887802745], [80.18564594790546, 13.024285085972961], [80.18549129149778, 13.024258147016207], [80.18537678431929, 13.024062463438243], [80.18519774529629, 13.02386638735434], [80.18497800699701, 13.023904048247056], [80.18466495386089, 13.024292118351907], [80.18430005523011, 13.024705871394223], [80.18398953231099, 13.024794976662898], [80.18375787772766, 13.024715572814424], [80.18334784417787, 13.024362102055006], [80.18318983402864, 13.024133727819395], [80.18313107613321, 13.024048804227148], [80.18291265794709, 13.023930483466314], [80.18266688689096, 13.023993984298906], [80.18150939892521, 13.024406469085589], [80.18066293416986, 13.024535752682839], [80.18017410311894, 13.024465563383844], [80.17957461365829, 13.024327484969186], [80.17908521377002, 13.024324508261683], [80.1781963438536, 13.024207075080637], [80.17775010757624, 13.024361198362685], [80.17746034789556, 13.024426651990714], [80.17728371158731, 13.024268740171538], [80.17708691556766, 13.023864246879166], [80.17682243513694, 13.023571368657757], [80.17637600924708, 13.023747896137147], [80.17575105092395, 13.023990553768913], [80.17536908603223, 13.02443633752842], [80.17503180165207, 13.024859987700696], [80.17474204197129, 13.024925441328636], [80.17423039663338, 13.024922329316299], [80.17334323322974, 13.024603258360953], [80.17176304786673, 13.024683268502576], [80.17067801103427, 13.02478234008347], [80.17038269232407, 13.024809304782389], [80.16915596918997, 13.025182734364934], [80.1685772082785, 13.025224024832157], [80.16831007327222, 13.025244805370514], [80.16772998507324, 13.025442925217886], [80.16753091370309, 13.02530728229104], [80.16751075399132, 13.025060700817667], [80.16750393618199, 13.024373624868376], [80.16749874761854, 13.023850738867479], [80.16725746069991, 13.023445974965261], [80.16683858941053, 13.022995320229688], [80.16655394926786, 13.022455860534906], [80.16638186366069, 13.02176024798459], [80.16622804163951, 13.021535258879021], [80.16587154561047, 13.021600306592193], [80.16551448074364, 13.021732566896945], [80.16551220539324, 13.022001417262382], [80.16566659625191, 13.022159193776636], [80.16553008975443, 13.02251684910137], [80.16530346378408, 13.023008388389753], [80.16534473126995, 13.023389530350679], [80.165428783142, 13.023972580695839], [80.1654044519548, 13.024218891559366], [80.16522554029633, 13.02432983010607], [80.16475781701988, 13.024394201294806], [80.1641999742701, 13.024592456446834], [80.16326604461729, 13.024541965247435], [80.16286505768909, 13.024606742350938], [80.16262130580739, 13.024493233011322], [80.1626245292204, 13.024112361660153], [80.162473741, 13.023528905400402], [80.16218777356981, 13.023146275085503], [80.1618322256031, 13.02309930181312], [80.16136507116414, 13.02309646041054], [80.16069713884242, 13.023159613855237], [80.1600727493568, 13.023335058895599], [80.15982558444968, 13.023624825104582], [80.15982160258649, 13.024095313244496], [80.15984119346048, 13.024409107309273], [80.15970639347597, 13.024565124859796], [80.15955086494209, 13.024541773528528], [80.15932935851005, 13.024428399493923], [80.159018491055, 13.024359292634133], [80.15868461970042, 13.024379667257898], [80.15826138732265, 13.024444309056479], [80.15799463154164, 13.024420281200774], [80.15759364461344, 13.024485058304277], [80.15661237987358, 13.02477035945205], [80.15585356962845, 13.025057013648608], [80.15523050743062, 13.025075629308999], [80.15463025951978, 13.025027167682731], [80.15396213758538, 13.02511272532468], [80.15197660420624, 13.02577280910396], [80.15166459907589, 13.0258381274268], [80.15137635629532, 13.025724347477782], [80.15111282392729, 13.025319448270553], [80.15075746557318, 13.025250070801095], [80.15033404358309, 13.02533711679675], [80.14984293718176, 13.025535777863547], [80.14955431517618, 13.025466806308502], [80.14915617243598, 13.025195520454899], [80.14825074544606, 13.024405826054716], [80.14771723388384, 13.024357770343306], [80.14704892233685, 13.02446573218233], [80.14668996134463, 13.024822034458458], [80.14651104968634, 13.024932973004985], [80.14593342645007, 13.0248398382894], [80.14526088034283, 13.024625046799473], [80.14515774157535, 13.02676523373186], [80.14517786886212, 13.02773585861757], [80.14531618934944, 13.028136318594749], [80.1454005635274, 13.031562134604554], [80.14707168546752, 13.03168647573448], [80.1473827060314, 13.031774000044502], [80.14749316916968, 13.032117202202928], [80.14788027328271, 13.033261324315623], [80.14790305777842, 13.033917979272166], [80.14682587805265, 13.033939971664696], [80.1467101004963, 13.034224709365047], [80.14673264342757, 13.0349099070424], [80.14695260344648, 13.035710482242576], [80.14686202603033, 13.036366447690758], [80.14634561675197, 13.037105455645856], [80.14611502789738, 13.037560760162878], [80.14607895735705, 13.038473954852877], [80.14601913606334, 13.038844665469837], [80.14598330708739, 13.039729317438939], [80.14600729940538, 13.04024325879117], [80.14626115588442, 13.040387523788896], [80.14660051692627, 13.040475220476319], [80.14702538253074, 13.040506348852995], [80.14719300975386, 13.040792810323717], [80.14730395602125, 13.041078927040525], [80.14761497658512, 13.041166451350724], [80.14823798397063, 13.04122732908762], [80.14860616861927, 13.041258112710294], [80.14891960482771, 13.041060209811958], [80.14920349273584, 13.041004848140888], [80.14962980772705, 13.040864720192532], [80.14963802091833, 13.03989426768369], [80.1498940514774, 13.039781648193957], [80.15026271925512, 13.039755346374745], [80.15037390708669, 13.040012920370655], [80.15050932880062, 13.040755892997899], [80.15062075819682, 13.04098492427291], [80.15081889997785, 13.041014673633219], [80.1529720516072, 13.041113402452206], [80.15781779020442, 13.041199964370817], [80.15852726841057, 13.041090102913996], [80.15895092619284, 13.041263944894895], [80.15940413227528, 13.041295245648707], [80.15977400787503, 13.04112623022536], [80.16048300295225, 13.041073454210158], [80.16075546247254, 13.041056827266337], [80.16090835168555, 13.041047497145128], [80.16107477108639, 13.04147667222025], [80.16132041437433, 13.042591389726818], [80.16130567894297, 13.044332495698393], [80.16132339058534, 13.045588547792638], [80.16160268876894, 13.046075497817741], [80.16216756581204, 13.046307287125666], [80.16244855494675, 13.046594438104572], [80.162610867752, 13.047508839433982], [80.16245926122004, 13.048678229103436], [80.16204945004873, 13.050217122750437], [80.1617926947962, 13.050415370402776], [80.16147853389438, 13.050698901463539], [80.16145099554731, 13.05395277163995], [80.16152055685647, 13.055780022905447], [80.16148110441391, 13.057092815687218], [80.16152667340516, 13.058406125600305], [80.16167980676128, 13.060405150321882], [80.16175806439047, 13.06120486363674], [80.16166772853877, 13.061832286364202], [80.16171450535239, 13.063002882672977], [80.1619087821022, 13.063489315566853], [80.16224814314404, 13.063577012254099], [80.16276086742236, 13.063827042421691], [80.1628408775361, 13.063866059380777], [80.16312114197753, 13.064238838522288], [80.16312701696177, 13.066893483938044], [80.1629526259341, 13.067406218650865], [80.16278234150204, 13.067433727109487], [80.16230224432856, 13.067230997653597], [80.16207527894065, 13.06725816135795], [80.16207117234497, 13.067743387612326], [80.16215232874745, 13.068200588277032], [80.16265859231913, 13.068660374597782], [80.16304883677002, 13.069433441339248], [80.16306944718553, 13.070346980783517], [80.16278000329507, 13.071058825034084], [80.16266108540114, 13.07171461810522], [80.16226262775898, 13.071912003872418], [80.16209089394016, 13.072110768655895], [80.16220135707844, 13.07245397081441], [80.16191553665476, 13.072737674252219], [80.1613199034893, 13.072791139775605], [80.1606382826322, 13.072958259051356], [80.1604072106488, 13.073470649010085], [80.16039247521744, 13.07521175498175], [80.16038812705737, 13.075725523956935], [80.1603225082168, 13.0767812598742], [80.1603431186324, 13.077694799318293], [80.16028064012984, 13.078379479864418], [80.16030487401203, 13.07886487849593], [80.16047298436408, 13.079094254525033], [80.16098262983789, 13.079154442753923], [80.16123624475266, 13.079327250472458], [80.16126313584397, 13.079498679174536], [80.16121590466916, 13.079766087459118], [80.1613751131004, 13.080069643788258], [80.16159518101168, 13.081374438172707], [80.16163627928012, 13.08197986407856], [80.16211291967056, 13.08300690706202], [80.1630100685071, 13.083501159791075], [80.1637262778942, 13.083528792033258], [80.16437749120725, 13.083043957004156], [80.16500460973458, 13.082675355408865], [80.16516913664347, 13.082350492158076]]]}}, {"type": "Feature", "properties": {"Zone_No": "XII", "Zone Name": "Zone 12"}, "geometry": {"type": "Polygon", "coordinates": [[[80.19439997944947, 13.024140612032506], [80.19383236778984, 13.018258314606909], [80.19357016578368, 13.016080416600259], [80.19374810521043, 13.014950951775925], [80.19437527531038, 13.013795955657356], [80.19436084720243, 13.012184838259463], [80.19403654149774, 13.010713154463213], [80.1937134317458, 13.009100159551798], [80.1935759921938, 13.00876015945954], [80.19340833795948, 13.008674348692159], [80.19186158107122, 13.009060632246724], [80.18961279661045, 13.009499173171188], [80.1891072028117, 13.009552625322337], [80.1886313453142, 13.009408412595066], [80.1868176026093, 13.008182042604352], [80.18656504490032, 13.008180506456876], [80.18639547714183, 13.008320793473812], [80.18603043237185, 13.008346836817116], [80.18563971753946, 13.008090087246712], [80.18539050849779, 13.00769287997617], [80.18485900544617, 13.007491801436663], [80.18362834510827, 13.007003833589822], [80.18248976396069, 13.00558372443111], [80.18218443098374, 13.005186175794522], [80.18202910453594, 13.005031323930746], [80.1810434579309, 13.004048688866495], [80.18065250390796, 13.003820201519142], [80.17755842104435, 13.000878841739668], [80.17625387402568, 12.999638686804923], [80.17746907281715, 12.99532173536416], [80.17574621334978, 12.993304535176739], [80.1743032559873, 12.991373828489058], [80.1773518877831, 12.989272595529341], [80.17794358100907, 12.988993557642766], [80.17836427133335, 12.989024380111788], [80.1785335999014, 12.988912355317813], [80.17863122628624, 12.988664407537728], [80.17887775841935, 12.98803827459952], [80.17921904665126, 12.987503340557835], [80.17961263176997, 12.987420943451275], [80.18121312068826, 12.98731762349344], [80.1834226012267, 12.988207236370139], [80.18428917355641, 12.988608198667903], [80.18453910016959, 12.988920619269026], [80.18509651247426, 12.989376228499369], [80.18531933388181, 12.989575429525354], [80.18525986127915, 12.989970759282107], [80.18505792612379, 12.990619595631289], [80.1850519463607, 12.991326151207913], [80.18554342791856, 12.992940170218], [80.18564993521656, 12.993619146303756], [80.18595502900297, 12.994044957163394], [80.1860980504772, 12.994092255905562], [80.1867386113825, 12.994304096296657], [80.18919682258144, 12.99564744088991], [80.19093235914639, 12.996166743254841], [80.19353733832773, 12.996747861240484], [80.19726623135836, 12.997166233210175], [80.19869787008975, 12.997118413600125], [80.1987142117217, 12.998503433213434], [80.19943699784838, 12.998675018027347], [80.19995783116823, 12.998696926525296], [80.20053559523976, 12.998587997090668], [80.20070289832935, 12.998607755289568], [80.2007754225653, 12.998833083618274], [80.20068111950714, 12.998982434839887], [80.20055980387929, 13.000124873606053], [80.20063296250893, 13.000275243390144], [80.20096772728661, 13.0002960201517], [80.20116964141461, 13.00033027210071], [80.20165522930273, 13.000412645393164], [80.20170660911006, 13.000937694727662], [80.20207842899784, 13.00097743747258], [80.2020620933625, 13.002907620000789], [80.20278712628394, 13.002986992317242], [80.20297192603898, 13.003138041143044], [80.20302552622408, 13.003400735570766], [80.20287571979975, 13.00351226799886], [80.20252218956941, 13.00351011769981], [80.20243808765002, 13.004652782813272], [80.20221464680083, 13.004670164365914], [80.20211542719221, 13.005400444309453], [80.20230006834879, 13.005570232771499], [80.20378306574301, 13.006235173928923], [80.20404197571825, 13.006424154721715], [80.20404343570053, 13.007071971951442], [80.20449415848637, 13.007074713410768], [80.20809435269366, 13.007756920325727], [80.21022015265675, 13.008347620786717], [80.21520475864462, 13.010069981365676], [80.21353492029294, 13.008863014326296], [80.21174530084058, 13.007283894794183], [80.20980278372674, 13.004403861488653], [80.20831221179171, 13.001382134433678], [80.20790979816013, 13.000513030945568], [80.20757600152687, 12.999005180953857], [80.20652841771526, 12.994272960542682], [80.20585566797766, 12.991911855635804], [80.20505600704215, 12.989105338957815], [80.20496916271068, 12.988742586558763], [80.20489769592788, 12.988444066823432], [80.20465324415554, 12.988277502672071], [80.20432579502089, 12.988234241681104], [80.2037924241273, 12.988313536179449], [80.20363027120759, 12.988106203272695], [80.20363376375802, 12.98769353124761], [80.2037240954763, 12.986703616834768], [80.20377450016099, 12.98558965159072], [80.2035324931742, 12.985134217021818], [80.20337470594238, 12.984411044083751], [80.2034195225465, 12.983957354079964], [80.20354384396285, 12.98379303294069], [80.20399526525892, 12.983713239995017], [80.20452933466238, 12.983551411091584], [80.20477832675004, 12.983181501610405], [80.20470371150833, 12.982314391910718], [80.20487145250861, 12.981861449577478], [80.20520169568374, 12.981574572948626], [80.2063913618668, 12.981416731622394], [80.20667888396814, 12.981335941782598], [80.20680355463944, 12.981130353440514], [80.20680984123007, 12.980387543795699], [80.20709736333121, 12.980306753955547], [80.20746648577467, 12.980267729765446], [80.20746927981496, 12.979937592145271], [80.20740462127456, 12.979627421766912], [80.20662781070092, 12.978537034781054], [80.20647112908986, 12.97846678243116], [80.20631335832354, 12.97852522225996], [80.20601697261361, 12.97870161787745], [80.20591876384493, 12.978691120628069], [80.20580248840908, 12.978492415240014], [80.20508188295973, 12.976527850484961], [80.20482841686024, 12.97627881111397], [80.20472029505567, 12.97627815347798], [80.20467930241225, 12.976475902304538], [80.20464755255564, 12.976743006704647], [80.20453850915813, 12.976851242450346], [80.20432184664318, 12.976899424170204], [80.20352408514898, 12.977082670146375], [80.20237205157031, 12.977313260851128], [80.20221352677338, 12.97746079526497], [80.20222226687314, 12.977589547228638], [80.20227225188482, 12.977903224976947], [80.20211712849913, 12.978159031409072], [80.20182836674834, 12.978140158392234], [80.20150402257683, 12.978309352245917], [80.20140046213092, 12.978497005649666], [80.20144956253084, 12.978719820918391], [80.20137897711022, 12.979027491530845], [80.20107148258963, 12.979213904533657], [80.20049265539039, 12.97933020053946], [80.20018559543568, 12.97946526619563], [80.1997919695415, 12.979788088622199], [80.19941794554882, 12.979802930335923], [80.19904493554345, 12.97969796157433], [80.19880672274552, 12.979730746004256], [80.19822847496732, 12.97977857888156], [80.19778618323929, 12.979827238692762], [80.19746169421235, 12.980013548328659], [80.19710394044947, 12.9801140723201], [80.19661037549211, 12.98019665359543], [80.19628574160986, 12.980400079013629], [80.19580497035477, 12.980979121339184], [80.1941142574848, 12.9819444876165], [80.19344944376704, 12.982180077263935], [80.1926158438296, 12.982277706986642], [80.19210824032149, 12.98232373816471], [80.19173140522858, 12.982357910826833], [80.19129027234281, 12.982269644380414], [80.19101995365138, 12.982079716908354], [80.19068107751373, 12.98195783909802], [80.18998546160041, 12.981816674803811], [80.18980112942725, 12.981507453690119], [80.18968738267435, 12.980890561963884], [80.18976664075444, 12.980632302811864], [80.18979224681785, 12.980548866520566], [80.18984598258746, 12.980223976759072], [80.1898989476446, 12.9779820160253], [80.18996967792037, 12.977657229630632], [80.19022633377764, 12.977453390745394], [80.19058466696157, 12.977284403625275], [80.19068822740748, 12.977096750221436], [80.19058872291004, 12.976805161723822], [80.19051055857823, 12.976000203126977], [80.19046319644207, 12.975571998471866], [80.19053450613896, 12.975178748948432], [80.1905705231256, 12.97493933473118], [80.19076093922156, 12.974529692992695], [80.19064342623102, 12.974357811603662], [80.19005195018465, 12.973960530777115], [80.18964567544316, 12.973769776370977], [80.18956128233316, 12.973700796408524], [80.189445942172, 12.973272178286463], [80.18914260201953, 12.970959583722083], [80.18926402610339, 12.970669338991966], [80.19049255563279, 12.970094844803123], [80.19197368507126, 12.969795753630672], [80.19228175901308, 12.969540877499272], [80.1935575058234, 12.969411703747665], [80.19386471063353, 12.96925952230937], [80.19395011773048, 12.969208691796416], [80.19390521813462, 12.968489518844114], [80.19382314270949, 12.968146686366596], [80.19368805579148, 12.968043164739504], [80.19115109413669, 12.968592583906466], [80.18942870993911, 12.969283890935154], [80.1880322633213, 12.969617730505808], [80.18614471428619, 12.969743183054335], [80.18544750496453, 12.969790292364388], [80.18487287856918, 12.969410230686881], [80.18468811182994, 12.969152356919652], [80.18462201692394, 12.96892943828419], [80.18443464278951, 12.968979648596454], [80.18426426316107, 12.969029962275632], [80.184216466459, 12.96865310496725], [80.18416765577, 12.96839605813401], [80.18389675765708, 12.968274593790715], [80.18349048291576, 12.968083839384756], [80.18193204365394, 12.96807871861064], [80.1818703016436, 12.968078515736478], [80.1803836862744, 12.968907686671324], [80.17694626590453, 12.970780519670319], [80.17657375819701, 12.971088703228014], [80.1766306758357, 12.971647858134036], [80.17704591388312, 12.973575169326454], [80.17740003064773, 12.975440018900239], [80.17735896089604, 12.976650521308772], [80.17716718975939, 12.97745652302694], [80.17685554060712, 12.97785821153393], [80.17672672984756, 12.97850937155752], [80.17650571170822, 12.979128925814395], [80.17529808302814, 12.97977352407654], [80.17390892959389, 12.980013434169576], [80.17365160242872, 12.979997463477696], [80.17335437167671, 12.979979016218776], [80.17267783392174, 12.979788631700226], [80.17162826300374, 12.97996851740025], [80.16881965822148, 12.980386063446433], [80.16733856013543, 12.980563324441649], [80.16620177366497, 12.980121781096118], [80.16677034037495, 12.982143159674505], [80.16706990405059, 12.98316946436818], [80.16724880152725, 12.98388458584195], [80.16533442140012, 12.987908782587295], [80.16242003161656, 12.993541233191083], [80.16125854873727, 12.996017762907583], [80.16069794808159, 12.996697341557203], [80.16057176459962, 12.997038068276487], [80.16060048614689, 12.997286602399013], [80.16262939545013, 13.001583143087489], [80.16416084298122, 13.00274112025915], [80.16365742269213, 13.003948810484308], [80.16354682436953, 13.006090237848541], [80.16342169179865, 13.006306791245978], [80.1599038867982, 13.00675106860781], [80.15944048534952, 13.006872429746105], [80.15922314539895, 13.007057377376471], [80.15922130630464, 13.007274680689592], [80.15985861340232, 13.008458264303643], [80.15984573974222, 13.009979387495582], [80.16005992695979, 13.010166959830668], [80.16048987776159, 13.010355844518026], [80.16085686818604, 13.010699570899783], [80.16085029999223, 13.011475654161083], [80.16192885518512, 13.01151325925319], [80.16198892555691, 13.011699894193493], [80.16164330030227, 13.012473915186836], [80.1616101123832, 13.012753117681916], [80.16201029072681, 13.012817641568594], [80.1620395377295, 13.013004089030241], [80.16194233852232, 13.013562306541656], [80.16169181065277, 13.014026456667013], [80.16157985958124, 13.014261119052447], [80.16144075732761, 13.014552693453604], [80.16110038662808, 13.01470584783789], [80.16042279796193, 13.014639636641098], [80.16005318025988, 13.014606343563914], [80.15967962164136, 13.01503870044319], [80.15933951366961, 13.015160811497081], [80.15878574393564, 13.015033263555095], [80.15826673848733, 13.014440253135126], [80.157840728602, 13.013785718491041], [80.15741156598358, 13.01350370381241], [80.15652084101087, 13.013125746958773], [80.15593545972476, 13.013091141529229], [80.15528501623929, 13.013459724437778], [80.15391880434154, 13.0146311219231], [80.15357422999782, 13.015280969594508], [80.15335268640297, 13.015962610512085], [80.15316643254938, 13.016116702290889], [80.15264190981817, 13.016175601810462], [80.15229996275187, 13.016515016177385], [80.15149435150971, 13.017006835013175], [80.15019635454406, 13.017402524195129], [80.14930142592752, 13.017521260628792], [80.14899398041918, 13.017426255848305], [80.14878215775141, 13.016959293539218], [80.14794992678416, 13.016954231608876], [80.14764090490932, 13.017045486811293], [80.14751524688285, 13.017324126869697], [80.14747496531437, 13.018441499286956], [80.14749291502355, 13.019962809957816], [80.14736200244198, 13.020862316625278], [80.14699028291776, 13.021077370191522], [80.14637171371255, 13.021321967256968], [80.1451379907628, 13.02140759809228], [80.14489035289854, 13.021530271582845], [80.14485663952397, 13.021871560738893], [80.14506215672571, 13.023083562978796], [80.14524420693546, 13.023426164486937], [80.14542651987274, 13.023737722664949], [80.14545419050883, 13.024110430109323], [80.14526088034283, 13.024625046799473], [80.14593342645007, 13.0248398382894], [80.14651104968634, 13.024932973004985], [80.14668996134463, 13.024822034458458], [80.14704892233685, 13.02446573218233], [80.14771723388384, 13.024357770343306], [80.14825074544606, 13.024405826054716], [80.14915617243598, 13.025195520454899], [80.14955431517618, 13.025466806308502], [80.14984293718176, 13.025535777863547], [80.15033404358309, 13.02533711679675], [80.15075746557318, 13.025250070801095], [80.15111282392729, 13.025319448270553], [80.15137635629532, 13.025724347477782], [80.15166459907589, 13.0258381274268], [80.15197660420624, 13.02577280910396], [80.15396213758538, 13.02511272532468], [80.15463025951978, 13.025027167682731], [80.15523050743062, 13.025075629308999], [80.15585356962845, 13.025057013648608], [80.15661237987358, 13.02477035945205], [80.15759364461344, 13.024485058304277], [80.15799463154164, 13.024420281200774], [80.15826138732265, 13.024444309056479], [80.15868461970042, 13.024379667257898], [80.159018491055, 13.024359292634133], [80.15932935851005, 13.024428399493923], [80.15955086494209, 13.024541773528528], [80.15970639347597, 13.024565124859796], [80.15984119346048, 13.024409107309273], [80.15982160258649, 13.024095313244496], [80.15982558444968, 13.023624825104582], [80.1600727493568, 13.023335058895599], [80.16069713884242, 13.023159613855237], [80.16136507116414, 13.02309646041054], [80.1618322256031, 13.02309930181312], [80.16218777356981, 13.023146275085503], [80.162473741, 13.023528905400402], [80.1626245292204, 13.024112361660153], [80.16262130580739, 13.024493233011322], [80.16286505768909, 13.024606742350938], [80.16326604461729, 13.024541965247435], [80.1641999742701, 13.024592456446834], [80.16475781701988, 13.024394201294806], [80.16522554029633, 13.02432983010607], [80.1654044519548, 13.024218891559366], [80.165428783142, 13.023972580695839], [80.16534473126995, 13.023389530350679], [80.16530346378408, 13.023008388389753], [80.16553008975443, 13.02251684910137], [80.16566659625191, 13.022159193776636], [80.16551220539324, 13.022001417262382], [80.16551448074364, 13.021732566896945], [80.16587154561047, 13.021600306592193], [80.16622804163951, 13.021535258879021], [80.16638186366069, 13.02176024798459], [80.16655394926786, 13.022455860534906], [80.16683858941053, 13.022995320229688], [80.16725746069991, 13.023445974965261], [80.16749874761854, 13.023850738867479], [80.16751075399132, 13.025060700817667], [80.16753091370309, 13.02530728229104], [80.16772998507324, 13.025442925217886], [80.16831007327222, 13.025244805370514], [80.1685772082785, 13.025224024832157], [80.16915596918997, 13.025182734364934], [80.17038269232407, 13.024809304782389], [80.17176304786673, 13.024683268502576], [80.17334323322974, 13.024603258360953], [80.17423039663338, 13.024922329316299], [80.17474204197129, 13.024925441328636], [80.17503180165207, 13.024859987700696], [80.17536908603223, 13.02443633752842], [80.17575105092395, 13.023990553768913], [80.17637600924708, 13.023747896137147], [80.17682243513694, 13.023571368657757], [80.17708691556766, 13.023864246879166], [80.17728371158731, 13.024268740171538], [80.17746034789556, 13.024426651990714], [80.17775010757624, 13.024361198362685], [80.1781963438536, 13.024207075080637], [80.17908521377002, 13.024324508261683], [80.17957461365829, 13.024327484969186], [80.18017410311894, 13.024465563383844], [80.18066293416986, 13.024535752682839], [80.18150939892521, 13.024406469085589], [80.18266688689096, 13.023993984298906], [80.18291265794709, 13.023930483466314], [80.18313107613321, 13.024048804227148], [80.18334784417787, 13.024362102055006], [80.18375787772766, 13.024715572814424], [80.18398953231099, 13.024794976662898], [80.18430005523011, 13.024705871394223], [80.18466495386089, 13.024292118351907], [80.18497800699701, 13.023904048247056], [80.18519774529629, 13.02386638735434], [80.18537678431929, 13.024062463438243], [80.18549129149778, 13.024258147016207], [80.18564594790546, 13.024285085972961], [80.18577622169819, 13.024142887802745], [80.1858577302604, 13.023662415378231], [80.18613349441253, 13.023105129645026], [80.18653524198943, 13.02291258611564], [80.1870135477042, 13.022824501362637], [80.18758527826532, 13.0223730089264], [80.18785785214389, 13.022192678855967], [80.18830902500767, 13.022260418754191], [80.18897828602938, 13.022485474826459], [80.1895413258454, 13.023060861609656], [80.18988286721108, 13.023881884823693], [80.1899028070557, 13.024442888757934], [80.19039205985513, 13.024734749858288], [80.19161012765562, 13.026062777045707], [80.1933990485982, 13.027724430982731], [80.19452429974477, 13.027287658263939], [80.19468164157189, 13.027053906926364], [80.19475998143618, 13.026976147301847], [80.19439997944947, 13.024140612032506]]]}}]}